{
"type": "FeatureCollection",
"name": "civ_admincapitals",
"crs": { "type": "name", "properties": { "name": "urn:ogc:def:crs:OGC:1.3:CRS84" } },
"features": [
{ "type": "Feature", "properties": { "adm_p_lvl": 1, "name": "Abengourou", "name_1": null, "name_2": null, "name_3": null, "loc_pcode": null, "x_coord": -3.494769, "y_coord": 6.73116, "adm3_name": "Abengourou", "adm3_name1": null, "adm3_name2": null, "adm3_name3": null, "adm3_pcode": "CI090102", "adm2_name": "Abengourou", "adm2_name1": null, "adm2_name2": null, "adm2_name3": null, "adm2_pcode": "CI2001", "adm1_name": "Indenie-Djuablin", "adm1_name1": null, "adm1_name2": null, "adm1_name3": null, "adm1_pcode": "CI20", "adm0_name": "Côte d'Ivoire", "adm0_name1": null, "adm0_name2": null, "adm0_name3": null, "adm0_pcode": "CI", "valid_on": "2016-04-19", "valid_to": null, "cod_version": "V_01", "name_lng": null, "name_lng1": null, "name_lng2": null, "name_lng3": null }, "geometry": { "type": "Point", "coordinates": [ -3.494768999999849, 6.731160000000159 ] } },
{ "type": "Feature", "properties": { "adm_p_lvl": 1, "name": "Abidjan", "name_1": null, "name_2": null, "name_3": null, "loc_pcode": null, "x_coord": -3.966841, "y_coord": 5.277092, "adm3_name": "Abidjan", "adm3_name1": null, "adm3_name2": null, "adm3_name3": null, "adm3_pcode": "CI140101", "adm2_name": "Abidjan", "adm2_name1": null, "adm2_name2": null, "adm2_name3": null, "adm2_pcode": "CI0101", "adm1_name": "District Autonome D'Abidjan", "adm1_name1": null, "adm1_name2": null, "adm1_name3": null, "adm1_pcode": "CI01", "adm0_name": "Côte d'Ivoire", "adm0_name1": null, "adm0_name2": null, "adm0_name3": null, "adm0_pcode": "CI", "valid_on": "2016-04-19", "valid_to": null, "cod_version": "V_01", "name_lng": null, "name_lng1": null, "name_lng2": null, "name_lng3": null }, "geometry": { "type": "Point", "coordinates": [ -3.966841, 5.277092 ] } },
{ "type": "Feature", "properties": { "adm_p_lvl": 1, "name": "Aboisso", "name_1": null, "name_2": null, "name_3": null, "loc_pcode": null, "x_coord": -3.204888, "y_coord": 5.469985, "adm3_name": "Aboisso", "adm3_name1": null, "adm3_name2": null, "adm3_name3": null, "adm3_pcode": "CI090201", "adm2_name": "Aboisso", "adm2_name1": null, "adm2_name2": null, "adm2_name3": null, "adm2_pcode": "CI3001", "adm1_name": "Sud-Comoe", "adm1_name1": null, "adm1_name2": null, "adm1_name3": null, "adm1_pcode": "CI30", "adm0_name": "Côte d'Ivoire", "adm0_name1": null, "adm0_name2": null, "adm0_name3": null, "adm0_pcode": "CI", "valid_on": "2016-04-19", "valid_to": null, "cod_version": "V_01", "name_lng": null, "name_lng1": null, "name_lng2": null, "name_lng3": null }, "geometry": { "type": "Point", "coordinates": [ -3.204887999999869, 5.469985 ] } },
{ "type": "Feature", "properties": { "adm_p_lvl": 2, "name": "Adiake", "name_1": null, "name_2": null, "name_3": null, "loc_pcode": null, "x_coord": -3.30337, "y_coord": 5.285566, "adm3_name": "Adiake", "adm3_name1": null, "adm3_name2": null, "adm3_name3": null, "adm3_pcode": "CI090203", "adm2_name": "Adiaké", "adm2_name1": null, "adm2_name2": null, "adm2_name3": null, "adm2_pcode": "CI3002", "adm1_name": "Sud-Comoe", "adm1_name1": null, "adm1_name2": null, "adm1_name3": null, "adm1_pcode": "CI30", "adm0_name": "Côte d'Ivoire", "adm0_name1": null, "adm0_name2": null, "adm0_name3": null, "adm0_pcode": "CI", "valid_on": "2016-04-19", "valid_to": null, "cod_version": "V_01", "name_lng": null, "name_lng1": null, "name_lng2": null, "name_lng3": null }, "geometry": { "type": "Point", "coordinates": [ -3.30337, 5.285566 ] } },
{ "type": "Feature", "properties": { "adm_p_lvl": 1, "name": "Adzope", "name_1": null, "name_2": null, "name_3": null, "loc_pcode": null, "x_coord": -3.862047, "y_coord": 6.1072, "adm3_name": "Adzopé", "adm3_name1": null, "adm3_name2": null, "adm3_name3": null, "adm3_pcode": "CI130102", "adm2_name": "Adzopé", "adm2_name1": null, "adm2_name2": null, "adm2_name3": null, "adm2_pcode": "CI2401", "adm1_name": "Me", "adm1_name1": null, "adm1_name2": null, "adm1_name3": null, "adm1_pcode": "CI24", "adm0_name": "Côte d'Ivoire", "adm0_name1": null, "adm0_name2": null, "adm0_name3": null, "adm0_pcode": "CI", "valid_on": "2016-04-19", "valid_to": null, "cod_version": "V_01", "name_lng": null, "name_lng1": null, "name_lng2": null, "name_lng3": null }, "geometry": { "type": "Point", "coordinates": [ -3.862047, 6.1072 ] } },
{ "type": "Feature", "properties": { "adm_p_lvl": 1, "name": "Agboville", "name_1": null, "name_2": null, "name_3": null, "loc_pcode": null, "x_coord": -4.213234, "y_coord": 5.933423, "adm3_name": "Agboville", "adm3_name1": null, "adm3_name2": null, "adm3_name3": null, "adm3_pcode": "CI130202", "adm2_name": "Agboville", "adm2_name1": null, "adm2_name2": null, "adm2_name3": null, "adm2_pcode": "CI0301", "adm1_name": "Agneby-Tiassa", "adm1_name1": null, "adm1_name2": null, "adm1_name3": null, "adm1_pcode": "CI03", "adm0_name": "Côte d'Ivoire", "adm0_name1": null, "adm0_name2": null, "adm0_name3": null, "adm0_pcode": "CI", "valid_on": "2016-04-19", "valid_to": null, "cod_version": "V_01", "name_lng": null, "name_lng1": null, "name_lng2": null, "name_lng3": null }, "geometry": { "type": "Point", "coordinates": [ -4.213234, 5.933423000000118 ] } },
{ "type": "Feature", "properties": { "adm_p_lvl": 1, "name": "Agnibilekrou", "name_1": null, "name_2": null, "name_3": null, "loc_pcode": null, "x_coord": -3.203241, "y_coord": 7.131963, "adm3_name": "Agnibilekrou", "adm3_name1": null, "adm3_name2": null, "adm3_name3": null, "adm3_pcode": "CI090101", "adm2_name": "Agnibilékrou", "adm2_name1": null, "adm2_name2": null, "adm2_name3": null, "adm2_pcode": "CI2002", "adm1_name": "Indenie-Djuablin", "adm1_name1": null, "adm1_name2": null, "adm1_name3": null, "adm1_pcode": "CI20", "adm0_name": "Côte d'Ivoire", "adm0_name1": null, "adm0_name2": null, "adm0_name3": null, "adm0_pcode": "CI", "valid_on": "2016-04-19", "valid_to": null, "cod_version": "V_01", "name_lng": null, "name_lng1": null, "name_lng2": null, "name_lng3": null }, "geometry": { "type": "Point", "coordinates": [ -3.203241, 7.131963000000155 ] } },
{ "type": "Feature", "properties": { "adm_p_lvl": 2, "name": "Akoupe", "name_1": null, "name_2": null, "name_3": null, "loc_pcode": null, "x_coord": -3.884122, "y_coord": 6.381507, "adm3_name": "Akoupé", "adm3_name1": null, "adm3_name2": null, "adm3_name3": null, "adm3_pcode": "CI130101", "adm2_name": "Akoupé", "adm2_name1": null, "adm2_name2": null, "adm2_name3": null, "adm2_pcode": "CI2402", "adm1_name": "Me", "adm1_name1": null, "adm1_name2": null, "adm1_name3": null, "adm1_pcode": "CI24", "adm0_name": "Côte d'Ivoire", "adm0_name1": null, "adm0_name2": null, "adm0_name3": null, "adm0_pcode": "CI", "valid_on": "2016-04-19", "valid_to": null, "cod_version": "V_01", "name_lng": null, "name_lng1": null, "name_lng2": null, "name_lng3": null }, "geometry": { "type": "Point", "coordinates": [ -3.884122, 6.381507 ] } },
{ "type": "Feature", "properties": { "adm_p_lvl": 2, "name": "Alepe", "name_1": null, "name_2": null, "name_3": null, "loc_pcode": null, "x_coord": -3.665164, "y_coord": 5.501956, "adm3_name": "Alépé", "adm3_name1": null, "adm3_name2": null, "adm3_name3": null, "adm3_pcode": "CI130104", "adm2_name": "Alépé", "adm2_name1": null, "adm2_name2": null, "adm2_name3": null, "adm2_pcode": "CI2403", "adm1_name": "Me", "adm1_name1": null, "adm1_name2": null, "adm1_name3": null, "adm1_pcode": "CI24", "adm0_name": "Côte d'Ivoire", "adm0_name1": null, "adm0_name2": null, "adm0_name3": null, "adm0_pcode": "CI", "valid_on": "2016-04-19", "valid_to": null, "cod_version": "V_01", "name_lng": null, "name_lng1": null, "name_lng2": null, "name_lng3": null }, "geometry": { "type": "Point", "coordinates": [ -3.665163999999891, 5.501956000000177 ] } },
{ "type": "Feature", "properties": { "adm_p_lvl": 2, "name": "Arrah", "name_1": null, "name_2": null, "name_3": null, "loc_pcode": null, "x_coord": -3.970976, "y_coord": 6.674397, "adm3_name": "Arrah", "adm3_name1": null, "adm3_name2": null, "adm3_name3": null, "adm3_pcode": "CI070404", "adm2_name": "Arrah", "adm2_name1": null, "adm2_name2": null, "adm2_name3": null, "adm2_pcode": "CI2501", "adm1_name": "Moronou", "adm1_name1": null, "adm1_name2": null, "adm1_name3": null, "adm1_pcode": "CI25", "adm0_name": "Côte d'Ivoire", "adm0_name1": null, "adm0_name2": null, "adm0_name3": null, "adm0_pcode": "CI", "valid_on": "2016-04-19", "valid_to": null, "cod_version": "V_01", "name_lng": null, "name_lng1": null, "name_lng2": null, "name_lng3": null }, "geometry": { "type": "Point", "coordinates": [ -3.970976, 6.674397000000113 ] } },
{ "type": "Feature", "properties": { "adm_p_lvl": 2, "name": "Attiegouakro", "name_1": null, "name_2": null, "name_3": null, "loc_pcode": null, "x_coord": -5.114874, "y_coord": 6.774405, "adm3_name": "Attiégouakro", "adm3_name1": null, "adm3_name2": null, "adm3_name3": null, "adm3_pcode": "CI100101", "adm2_name": "Attiégouakro", "adm2_name1": null, "adm2_name2": null, "adm2_name3": null, "adm2_pcode": "CI0201", "adm1_name": "District Autonome De Yamoussoukro", "adm1_name1": null, "adm1_name2": null, "adm1_name3": null, "adm1_pcode": "CI02", "adm0_name": "Côte d'Ivoire", "adm0_name1": null, "adm0_name2": null, "adm0_name3": null, "adm0_pcode": "CI", "valid_on": "2016-04-19", "valid_to": null, "cod_version": "V_01", "name_lng": null, "name_lng1": null, "name_lng2": null, "name_lng3": null }, "geometry": { "type": "Point", "coordinates": [ -5.114873999999872, 6.774405000000172 ] } },
{ "type": "Feature", "properties": { "adm_p_lvl": 1, "name": "Bangolo", "name_1": null, "name_2": null, "name_3": null, "loc_pcode": null, "x_coord": -7.486269, "y_coord": 7.010094, "adm3_name": "Bangolo", "adm3_name1": null, "adm3_name2": null, "adm3_name3": null, "adm3_pcode": "CI060202", "adm2_name": "Bangolo", "adm2_name1": null, "adm2_name2": null, "adm2_name3": null, "adm2_pcode": "CI1601", "adm1_name": "Guemon", "adm1_name1": null, "adm1_name2": null, "adm1_name3": null, "adm1_pcode": "CI16", "adm0_name": "Côte d'Ivoire", "adm0_name1": null, "adm0_name2": null, "adm0_name3": null, "adm0_pcode": "CI", "valid_on": "2016-04-19", "valid_to": null, "cod_version": "V_01", "name_lng": null, "name_lng1": null, "name_lng2": null, "name_lng3": null }, "geometry": { "type": "Point", "coordinates": [ -7.486268999999879, 7.010094000000151 ] } },
{ "type": "Feature", "properties": { "adm_p_lvl": 2, "name": "Beoumi", "name_1": null, "name_2": null, "name_3": null, "loc_pcode": null, "x_coord": -5.581301, "y_coord": 7.672943, "adm3_name": "Béoumi", "adm3_name1": null, "adm3_name2": null, "adm3_name3": null, "adm3_pcode": "CI040202", "adm2_name": "Béoumi", "adm2_name1": null, "adm2_name2": null, "adm2_name3": null, "adm2_pcode": "CI1101", "adm1_name": "Gbeke", "adm1_name1": null, "adm1_name2": null, "adm1_name3": null, "adm1_pcode": "CI11", "adm0_name": "Côte d'Ivoire", "adm0_name1": null, "adm0_name2": null, "adm0_name3": null, "adm0_pcode": "CI", "valid_on": "2016-04-19", "valid_to": null, "cod_version": "V_01", "name_lng": null, "name_lng1": null, "name_lng2": null, "name_lng3": null }, "geometry": { "type": "Point", "coordinates": [ -5.581300999999883, 7.672943 ] } },
{ "type": "Feature", "properties": { "adm_p_lvl": 2, "name": "Bettie", "name_1": null, "name_2": null, "name_3": null, "loc_pcode": null, "x_coord": -3.408854, "y_coord": 6.075819, "adm3_name": "Bettié", "adm3_name1": null, "adm3_name2": null, "adm3_name3": null, "adm3_pcode": "CI090103", "adm2_name": "Béttié", "adm2_name1": null, "adm2_name2": null, "adm2_name3": null, "adm2_pcode": "CI2003", "adm1_name": "Indenie-Djuablin", "adm1_name1": null, "adm1_name2": null, "adm1_name3": null, "adm1_pcode": "CI20", "adm0_name": "Côte d'Ivoire", "adm0_name1": null, "adm0_name2": null, "adm0_name3": null, "adm0_pcode": "CI", "valid_on": "2016-04-19", "valid_to": null, "cod_version": "V_01", "name_lng": null, "name_lng1": null, "name_lng2": null, "name_lng3": null }, "geometry": { "type": "Point", "coordinates": [ -3.408854, 6.075819000000138 ] } },
{ "type": "Feature", "properties": { "adm_p_lvl": 2, "name": "Biankouma", "name_1": null, "name_2": null, "name_3": null, "loc_pcode": null, "x_coord": -7.615896, "y_coord": 7.740595, "adm3_name": "Biankouma", "adm3_name1": null, "adm3_name2": null, "adm3_name3": null, "adm3_pcode": "CI060101", "adm2_name": "Biankouma", "adm2_name1": null, "adm2_name2": null, "adm2_name3": null, "adm2_pcode": "CI3201", "adm1_name": "Tonkpi", "adm1_name1": null, "adm1_name2": null, "adm1_name3": null, "adm1_pcode": "CI32", "adm0_name": "Côte d'Ivoire", "adm0_name1": null, "adm0_name2": null, "adm0_name3": null, "adm0_pcode": "CI", "valid_on": "2016-04-19", "valid_to": null, "cod_version": "V_01", "name_lng": null, "name_lng1": null, "name_lng2": null, "name_lng3": null }, "geometry": { "type": "Point", "coordinates": [ -7.615896, 7.740595 ] } },
{ "type": "Feature", "properties": { "adm_p_lvl": 2, "name": "Blolequin", "name_1": null, "name_2": null, "name_3": null, "loc_pcode": null, "x_coord": -8.00395, "y_coord": 6.569519, "adm3_name": "Bloléquin", "adm3_name1": null, "adm3_name2": null, "adm3_name3": null, "adm3_pcode": "CI060301", "adm2_name": "Bloléquin", "adm2_name1": null, "adm2_name2": null, "adm2_name3": null, "adm2_pcode": "CI0901", "adm1_name": "Cavally", "adm1_name1": null, "adm1_name2": null, "adm1_name3": null, "adm1_pcode": "CI09", "adm0_name": "Côte d'Ivoire", "adm0_name1": null, "adm0_name2": null, "adm0_name3": null, "adm0_pcode": "CI", "valid_on": "2016-04-19", "valid_to": null, "cod_version": "V_01", "name_lng": null, "name_lng1": null, "name_lng2": null, "name_lng3": null }, "geometry": { "type": "Point", "coordinates": [ -8.00395, 6.569519000000128 ] } },
{ "type": "Feature", "properties": { "adm_p_lvl": 2, "name": "Bocanda", "name_1": null, "name_2": null, "name_3": null, "loc_pcode": null, "x_coord": -4.498324, "y_coord": 7.064476, "adm3_name": "Bocanda", "adm3_name1": null, "adm3_name2": null, "adm3_name3": null, "adm3_pcode": "CI070301", "adm2_name": "Bocanda", "adm2_name1": null, "adm2_name2": null, "adm2_name3": null, "adm2_pcode": "CI2701", "adm1_name": "N'Zi", "adm1_name1": null, "adm1_name2": null, "adm1_name3": null, "adm1_pcode": "CI27", "adm0_name": "Côte d'Ivoire", "adm0_name1": null, "adm0_name2": null, "adm0_name3": null, "adm0_pcode": "CI", "valid_on": "2016-04-19", "valid_to": null, "cod_version": "V_01", "name_lng": null, "name_lng1": null, "name_lng2": null, "name_lng3": null }, "geometry": { "type": "Point", "coordinates": [ -4.498324, 7.064476 ] } },
{ "type": "Feature", "properties": { "adm_p_lvl": 1, "name": "Bondoukou", "name_1": null, "name_2": null, "name_3": null, "loc_pcode": null, "x_coord": -2.796737, "y_coord": 8.044219, "adm3_name": "Bondoukou", "adm3_name1": null, "adm3_name2": null, "adm3_name3": null, "adm3_pcode": "CI030201", "adm2_name": "Bondoukou", "adm2_name1": null, "adm2_name2": null, "adm2_name3": null, "adm2_pcode": "CI1401", "adm1_name": "Gontougo", "adm1_name1": null, "adm1_name2": null, "adm1_name3": null, "adm1_pcode": "CI14", "adm0_name": "Côte d'Ivoire", "adm0_name1": null, "adm0_name2": null, "adm0_name3": null, "adm0_pcode": "CI", "valid_on": "2016-04-19", "valid_to": null, "cod_version": "V_01", "name_lng": null, "name_lng1": null, "name_lng2": null, "name_lng3": null }, "geometry": { "type": "Point", "coordinates": [ -2.796736999999894, 8.044219000000112 ] } },
{ "type": "Feature", "properties": { "adm_p_lvl": 1, "name": "Bongouanou", "name_1": null, "name_2": null, "name_3": null, "loc_pcode": null, "x_coord": -4.200109, "y_coord": 6.649658, "adm3_name": "Bongouanou", "adm3_name1": null, "adm3_name2": null, "adm3_name3": null, "adm3_pcode": "CI070403", "adm2_name": "Bongouanou", "adm2_name1": null, "adm2_name2": null, "adm2_name3": null, "adm2_pcode": "CI2502", "adm1_name": "Moronou", "adm1_name1": null, "adm1_name2": null, "adm1_name3": null, "adm1_pcode": "CI25", "adm0_name": "Côte d'Ivoire", "adm0_name1": null, "adm0_name2": null, "adm0_name3": null, "adm0_pcode": "CI", "valid_on": "2016-04-19", "valid_to": null, "cod_version": "V_01", "name_lng": null, "name_lng1": null, "name_lng2": null, "name_lng3": null }, "geometry": { "type": "Point", "coordinates": [ -4.200109, 6.649658 ] } },
{ "type": "Feature", "properties": { "adm_p_lvl": 2, "name": "Botro", "name_1": null, "name_2": null, "name_3": null, "loc_pcode": null, "x_coord": -5.307389, "y_coord": 7.844312, "adm3_name": "Botro", "adm3_name1": null, "adm3_name2": null, "adm3_name3": null, "adm3_pcode": "CI040201", "adm2_name": "Botro", "adm2_name1": null, "adm2_name2": null, "adm2_name3": null, "adm2_pcode": "CI1102", "adm1_name": "Gbeke", "adm1_name1": null, "adm1_name2": null, "adm1_name3": null, "adm1_pcode": "CI11", "adm0_name": "Côte d'Ivoire", "adm0_name1": null, "adm0_name2": null, "adm0_name3": null, "adm0_pcode": "CI", "valid_on": "2016-04-19", "valid_to": null, "cod_version": "V_01", "name_lng": null, "name_lng1": null, "name_lng2": null, "name_lng3": null }, "geometry": { "type": "Point", "coordinates": [ -5.307389, 7.844312000000116 ] } },
{ "type": "Feature", "properties": { "adm_p_lvl": 1, "name": "Bouafle", "name_1": null, "name_2": null, "name_3": null, "loc_pcode": null, "x_coord": -5.743426, "y_coord": 6.988208, "adm3_name": "Bouaflé", "adm3_name1": null, "adm3_name2": null, "adm3_name3": null, "adm3_pcode": "CI080202", "adm2_name": "Bouaflé", "adm2_name1": null, "adm2_name2": null, "adm2_name3": null, "adm2_pcode": "CI2301", "adm1_name": "Marahoue", "adm1_name1": null, "adm1_name2": null, "adm1_name3": null, "adm1_pcode": "CI23", "adm0_name": "Côte d'Ivoire", "adm0_name1": null, "adm0_name2": null, "adm0_name3": null, "adm0_pcode": "CI", "valid_on": "2016-04-19", "valid_to": null, "cod_version": "V_01", "name_lng": null, "name_lng1": null, "name_lng2": null, "name_lng3": null }, "geometry": { "type": "Point", "coordinates": [ -5.743426, 6.9882080000001 ] } },
{ "type": "Feature", "properties": { "adm_p_lvl": 1, "name": "Bouake", "name_1": null, "name_2": null, "name_3": null, "loc_pcode": null, "x_coord": -5.028742, "y_coord": 7.696505, "adm3_name": "Bouaké", "adm3_name1": null, "adm3_name2": null, "adm3_name3": null, "adm3_pcode": "CI040203", "adm2_name": "Bouaké", "adm2_name1": null, "adm2_name2": null, "adm2_name3": null, "adm2_pcode": "CI1103", "adm1_name": "Gbeke", "adm1_name1": null, "adm1_name2": null, "adm1_name3": null, "adm1_pcode": "CI11", "adm0_name": "Côte d'Ivoire", "adm0_name1": null, "adm0_name2": null, "adm0_name3": null, "adm0_pcode": "CI", "valid_on": "2016-04-19", "valid_to": null, "cod_version": "V_01", "name_lng": null, "name_lng1": null, "name_lng2": null, "name_lng3": null }, "geometry": { "type": "Point", "coordinates": [ -5.028742, 7.696505000000172 ] } },
{ "type": "Feature", "properties": { "adm_p_lvl": 1, "name": "Bouna", "name_1": null, "name_2": null, "name_3": null, "loc_pcode": null, "x_coord": -2.996257, "y_coord": 9.271432, "adm3_name": "Bouna", "adm3_name1": null, "adm3_name2": null, "adm3_name3": null, "adm3_pcode": "CI030103", "adm2_name": "Bouna", "adm2_name1": null, "adm2_name2": null, "adm2_name3": null, "adm2_pcode": "CI0801", "adm1_name": "Bounkani", "adm1_name1": null, "adm1_name2": null, "adm1_name3": null, "adm1_pcode": "CI08", "adm0_name": "Côte d'Ivoire", "adm0_name1": null, "adm0_name2": null, "adm0_name3": null, "adm0_pcode": "CI", "valid_on": "2016-04-19", "valid_to": null, "cod_version": "V_01", "name_lng": null, "name_lng1": null, "name_lng2": null, "name_lng3": null }, "geometry": { "type": "Point", "coordinates": [ -2.996257, 9.271432 ] } },
{ "type": "Feature", "properties": { "adm_p_lvl": 1, "name": "Boundiali", "name_1": null, "name_2": null, "name_3": null, "loc_pcode": null, "x_coord": -6.481062, "y_coord": 9.522558, "adm3_name": "Boundiali", "adm3_name1": null, "adm3_name2": null, "adm3_name3": null, "adm3_pcode": "CI010103", "adm2_name": "Boundiali", "adm2_name1": null, "adm2_name2": null, "adm2_name3": null, "adm2_pcode": "CI0501", "adm1_name": "Bagoue", "adm1_name1": null, "adm1_name2": null, "adm1_name3": null, "adm1_pcode": "CI05", "adm0_name": "Côte d'Ivoire", "adm0_name1": null, "adm0_name2": null, "adm0_name3": null, "adm0_pcode": "CI", "valid_on": "2016-04-19", "valid_to": null, "cod_version": "V_01", "name_lng": null, "name_lng1": null, "name_lng2": null, "name_lng3": null }, "geometry": { "type": "Point", "coordinates": [ -6.481062, 9.522558000000117 ] } },
{ "type": "Feature", "properties": { "adm_p_lvl": 2, "name": "Buyo", "name_1": null, "name_2": null, "name_3": null, "loc_pcode": null, "x_coord": -7.000769, "y_coord": 6.259368, "adm3_name": "Buyo", "adm3_name1": null, "adm3_name2": null, "adm3_name3": null, "adm3_pcode": "CI120101", "adm2_name": "Buyo", "adm2_name1": null, "adm2_name2": null, "adm2_name3": null, "adm2_pcode": "CI2601", "adm1_name": "Nawa", "adm1_name1": null, "adm1_name2": null, "adm1_name3": null, "adm1_pcode": "CI26", "adm0_name": "Côte d'Ivoire", "adm0_name1": null, "adm0_name2": null, "adm0_name3": null, "adm0_pcode": "CI", "valid_on": "2016-04-19", "valid_to": null, "cod_version": "V_01", "name_lng": null, "name_lng1": null, "name_lng2": null, "name_lng3": null }, "geometry": { "type": "Point", "coordinates": [ -7.000768999999877, 6.259368 ] } },
{ "type": "Feature", "properties": { "adm_p_lvl": 2, "name": "Dabakala", "name_1": null, "name_2": null, "name_3": null, "loc_pcode": null, "x_coord": -4.429357, "y_coord": 8.364598, "adm3_name": "Dabakala", "adm3_name1": null, "adm3_name2": null, "adm3_name3": null, "adm3_pcode": "CI040102", "adm2_name": "Dabakala", "adm2_name1": null, "adm2_name2": null, "adm2_name3": null, "adm2_pcode": "CI1701", "adm1_name": "Hambol", "adm1_name1": null, "adm1_name2": null, "adm1_name3": null, "adm1_pcode": "CI17", "adm0_name": "Côte d'Ivoire", "adm0_name1": null, "adm0_name2": null, "adm0_name3": null, "adm0_pcode": "CI", "valid_on": "2016-04-19", "valid_to": null, "cod_version": "V_01", "name_lng": null, "name_lng1": null, "name_lng2": null, "name_lng3": null }, "geometry": { "type": "Point", "coordinates": [ -4.429357, 8.364598000000171 ] } },
{ "type": "Feature", "properties": { "adm_p_lvl": 1, "name": "Dabou", "name_1": null, "name_2": null, "name_3": null, "loc_pcode": null, "x_coord": -4.378254, "y_coord": 5.321831, "adm3_name": "Dabou", "adm3_name1": null, "adm3_name2": null, "adm3_name3": null, "adm3_pcode": "CI130302", "adm2_name": "Dabou", "adm2_name1": null, "adm2_name2": null, "adm2_name3": null, "adm2_pcode": "CI1501", "adm1_name": "Grands Ponts", "adm1_name1": null, "adm1_name2": null, "adm1_name3": null, "adm1_pcode": "CI15", "adm0_name": "Côte d'Ivoire", "adm0_name1": null, "adm0_name2": null, "adm0_name3": null, "adm0_pcode": "CI", "valid_on": "2016-04-19", "valid_to": null, "cod_version": "V_01", "name_lng": null, "name_lng1": null, "name_lng2": null, "name_lng3": null }, "geometry": { "type": "Point", "coordinates": [ -4.378254, 5.321831 ] } },
{ "type": "Feature", "properties": { "adm_p_lvl": 1, "name": "Dalao", "name_1": null, "name_2": null, "name_3": null, "loc_pcode": null, "x_coord": -6.448616, "y_coord": 6.887753, "adm3_name": "Daloa", "adm3_name1": null, "adm3_name2": null, "adm3_name3": null, "adm3_pcode": "CI080102", "adm2_name": "Daloa", "adm2_name1": null, "adm2_name2": null, "adm2_name3": null, "adm2_pcode": "CI1801", "adm1_name": "Haut-Sassandra", "adm1_name1": null, "adm1_name2": null, "adm1_name3": null, "adm1_pcode": "CI18", "adm0_name": "Côte d'Ivoire", "adm0_name1": null, "adm0_name2": null, "adm0_name3": null, "adm0_pcode": "CI", "valid_on": "2016-04-19", "valid_to": null, "cod_version": "V_01", "name_lng": null, "name_lng1": null, "name_lng2": null, "name_lng3": null }, "geometry": { "type": "Point", "coordinates": [ -6.448616, 6.887753 ] } },
{ "type": "Feature", "properties": { "adm_p_lvl": 2, "name": "Danane", "name_1": null, "name_2": null, "name_3": null, "loc_pcode": null, "x_coord": -8.15119, "y_coord": 7.260266, "adm3_name": "Danané", "adm3_name1": null, "adm3_name2": null, "adm3_name3": null, "adm3_pcode": "CI060103", "adm2_name": "Danané", "adm2_name1": null, "adm2_name2": null, "adm2_name3": null, "adm2_pcode": "CI3202", "adm1_name": "Tonkpi", "adm1_name1": null, "adm1_name2": null, "adm1_name3": null, "adm1_pcode": "CI32", "adm0_name": "Côte d'Ivoire", "adm0_name1": null, "adm0_name2": null, "adm0_name3": null, "adm0_pcode": "CI", "valid_on": "2016-04-19", "valid_to": null, "cod_version": "V_01", "name_lng": null, "name_lng1": null, "name_lng2": null, "name_lng3": null }, "geometry": { "type": "Point", "coordinates": [ -8.151189999999815, 7.260266000000115 ] } },
{ "type": "Feature", "properties": { "adm_p_lvl": 1, "name": "Daoukro", "name_1": null, "name_2": null, "name_3": null, "loc_pcode": null, "x_coord": -3.965868, "y_coord": 7.058045, "adm3_name": "Daoukro", "adm3_name1": null, "adm3_name2": null, "adm3_name3": null, "adm3_pcode": "CI070103", "adm2_name": "Daoukro", "adm2_name1": null, "adm2_name2": null, "adm2_name3": null, "adm2_pcode": "CI1901", "adm1_name": "Iffou", "adm1_name1": null, "adm1_name2": null, "adm1_name3": null, "adm1_pcode": "CI19", "adm0_name": "Côte d'Ivoire", "adm0_name1": null, "adm0_name2": null, "adm0_name3": null, "adm0_pcode": "CI", "valid_on": "2016-04-19", "valid_to": null, "cod_version": "V_01", "name_lng": null, "name_lng1": null, "name_lng2": null, "name_lng3": null }, "geometry": { "type": "Point", "coordinates": [ -3.965867999999887, 7.058045000000106 ] } },
{ "type": "Feature", "properties": { "adm_p_lvl": 2, "name": "Dianra", "name_1": null, "name_2": null, "name_3": null, "loc_pcode": null, "x_coord": -6.254532, "y_coord": 8.951237, "adm3_name": "Dianra", "adm3_name1": null, "adm3_name2": null, "adm3_name3": null, "adm3_pcode": "CI050101", "adm2_name": "Dianra", "adm2_name1": null, "adm2_name2": null, "adm2_name3": null, "adm2_pcode": "CI0701", "adm1_name": "Bere", "adm1_name1": null, "adm1_name2": null, "adm1_name3": null, "adm1_pcode": "CI07", "adm0_name": "Côte d'Ivoire", "adm0_name1": null, "adm0_name2": null, "adm0_name3": null, "adm0_pcode": "CI", "valid_on": "2016-04-19", "valid_to": null, "cod_version": "V_01", "name_lng": null, "name_lng1": null, "name_lng2": null, "name_lng3": null }, "geometry": { "type": "Point", "coordinates": [ -6.254532, 8.951237000000106 ] } },
{ "type": "Feature", "properties": { "adm_p_lvl": 2, "name": "Didievi", "name_1": null, "name_2": null, "name_3": null, "loc_pcode": null, "x_coord": -4.898102, "y_coord": 7.129221, "adm3_name": "Didievi", "adm3_name1": null, "adm3_name2": null, "adm3_name3": null, "adm3_pcode": "CI070201", "adm2_name": "Didievi", "adm2_name1": null, "adm2_name2": null, "adm2_name3": null, "adm2_pcode": "CI0601", "adm1_name": "Belier", "adm1_name1": null, "adm1_name2": null, "adm1_name3": null, "adm1_pcode": "CI06", "adm0_name": "Côte d'Ivoire", "adm0_name1": null, "adm0_name2": null, "adm0_name3": null, "adm0_pcode": "CI", "valid_on": "2016-04-19", "valid_to": null, "cod_version": "V_01", "name_lng": null, "name_lng1": null, "name_lng2": null, "name_lng3": null }, "geometry": { "type": "Point", "coordinates": [ -4.898102, 7.129221 ] } },
{ "type": "Feature", "properties": { "adm_p_lvl": 2, "name": "Dikodougou", "name_1": null, "name_2": null, "name_3": null, "loc_pcode": null, "x_coord": -5.7725, "y_coord": 9.06927, "adm3_name": "Dikodougou", "adm3_name1": null, "adm3_name2": null, "adm3_name3": null, "adm3_pcode": "CI010203", "adm2_name": "Dikodougou", "adm2_name1": null, "adm2_name2": null, "adm2_name3": null, "adm2_pcode": "CI2801", "adm1_name": "Poro", "adm1_name1": null, "adm1_name2": null, "adm1_name3": null, "adm1_pcode": "CI28", "adm0_name": "Côte d'Ivoire", "adm0_name1": null, "adm0_name2": null, "adm0_name3": null, "adm0_pcode": "CI", "valid_on": "2016-04-19", "valid_to": null, "cod_version": "V_01", "name_lng": null, "name_lng1": null, "name_lng2": null, "name_lng3": null }, "geometry": { "type": "Point", "coordinates": [ -5.7725, 9.069270000000188 ] } },
{ "type": "Feature", "properties": { "adm_p_lvl": 1, "name": "Dimbokro", "name_1": null, "name_2": null, "name_3": null, "loc_pcode": null, "x_coord": -4.715958, "y_coord": 6.652396, "adm3_name": "Dimbokro", "adm3_name1": null, "adm3_name2": null, "adm3_name3": null, "adm3_pcode": "CI070302", "adm2_name": "Dimbokro", "adm2_name1": null, "adm2_name2": null, "adm2_name3": null, "adm2_pcode": "CI2702", "adm1_name": "N'Zi", "adm1_name1": null, "adm1_name2": null, "adm1_name3": null, "adm1_pcode": "CI27", "adm0_name": "Côte d'Ivoire", "adm0_name1": null, "adm0_name2": null, "adm0_name3": null, "adm0_pcode": "CI", "valid_on": "2016-04-19", "valid_to": null, "cod_version": "V_01", "name_lng": null, "name_lng1": null, "name_lng2": null, "name_lng3": null }, "geometry": { "type": "Point", "coordinates": [ -4.715957999999887, 6.652396000000124 ] } },
{ "type": "Feature", "properties": { "adm_p_lvl": 1, "name": "Divo", "name_1": null, "name_2": null, "name_3": null, "loc_pcode": null, "x_coord": -5.358514, "y_coord": 5.832802, "adm3_name": "Divo", "adm3_name1": null, "adm3_name2": null, "adm3_name3": null, "adm3_pcode": "CI110202", "adm2_name": "Divo", "adm2_name1": null, "adm2_name2": null, "adm2_name3": null, "adm2_pcode": "CI2201", "adm1_name": "Loh-Djiboua", "adm1_name1": null, "adm1_name2": null, "adm1_name3": null, "adm1_pcode": "CI22", "adm0_name": "Côte d'Ivoire", "adm0_name1": null, "adm0_name2": null, "adm0_name3": null, "adm0_pcode": "CI", "valid_on": "2016-04-19", "valid_to": null, "cod_version": "V_01", "name_lng": null, "name_lng1": null, "name_lng2": null, "name_lng3": null }, "geometry": { "type": "Point", "coordinates": [ -5.358513999999843, 5.832802000000129 ] } },
{ "type": "Feature", "properties": { "adm_p_lvl": 2, "name": "Djekanou", "name_1": null, "name_2": null, "name_3": null, "loc_pcode": null, "x_coord": -5.114155, "y_coord": 6.470478, "adm3_name": "Djékanou", "adm3_name1": null, "adm3_name2": null, "adm3_name3": null, "adm3_pcode": "CI070204", "adm2_name": "Djekanou", "adm2_name1": null, "adm2_name2": null, "adm2_name3": null, "adm2_pcode": "CI0602", "adm1_name": "Belier", "adm1_name1": null, "adm1_name2": null, "adm1_name3": null, "adm1_pcode": "CI06", "adm0_name": "Côte d'Ivoire", "adm0_name1": null, "adm0_name2": null, "adm0_name3": null, "adm0_pcode": "CI", "valid_on": "2016-04-19", "valid_to": null, "cod_version": "V_01", "name_lng": null, "name_lng1": null, "name_lng2": null, "name_lng3": null }, "geometry": { "type": "Point", "coordinates": [ -5.114154999999869, 6.470478000000128 ] } },
{ "type": "Feature", "properties": { "adm_p_lvl": 2, "name": "Doropo", "name_1": null, "name_2": null, "name_3": null, "loc_pcode": null, "x_coord": -3.335653, "y_coord": 9.811937, "adm3_name": "Doropo", "adm3_name1": null, "adm3_name2": null, "adm3_name3": null, "adm3_pcode": "CI030102", "adm2_name": "Doropo", "adm2_name1": null, "adm2_name2": null, "adm2_name3": null, "adm2_pcode": "CI0802", "adm1_name": "Bounkani", "adm1_name1": null, "adm1_name2": null, "adm1_name3": null, "adm1_pcode": "CI08", "adm0_name": "Côte d'Ivoire", "adm0_name1": null, "adm0_name2": null, "adm0_name3": null, "adm0_pcode": "CI", "valid_on": "2016-04-19", "valid_to": null, "cod_version": "V_01", "name_lng": null, "name_lng1": null, "name_lng2": null, "name_lng3": null }, "geometry": { "type": "Point", "coordinates": [ -3.335653, 9.811937 ] } },
{ "type": "Feature", "properties": { "adm_p_lvl": 2, "name": "Duekoue", "name_1": null, "name_2": null, "name_3": null, "loc_pcode": null, "x_coord": -7.349058, "y_coord": 6.74102, "adm3_name": "Duékoué", "adm3_name1": null, "adm3_name2": null, "adm3_name3": null, "adm3_pcode": "CI060203", "adm2_name": "Duékoué", "adm2_name1": null, "adm2_name2": null, "adm2_name3": null, "adm2_pcode": "CI1602", "adm1_name": "Guemon", "adm1_name1": null, "adm1_name2": null, "adm1_name3": null, "adm1_pcode": "CI16", "adm0_name": "Côte d'Ivoire", "adm0_name1": null, "adm0_name2": null, "adm0_name3": null, "adm0_pcode": "CI", "valid_on": "2016-04-19", "valid_to": null, "cod_version": "V_01", "name_lng": null, "name_lng1": null, "name_lng2": null, "name_lng3": null }, "geometry": { "type": "Point", "coordinates": [ -7.349058, 6.741020000000105 ] } },
{ "type": "Feature", "properties": { "adm_p_lvl": 2, "name": "Facobly", "name_1": null, "name_2": null, "name_3": null, "loc_pcode": null, "x_coord": -7.377571, "y_coord": 7.388674, "adm3_name": "Facobly", "adm3_name1": null, "adm3_name2": null, "adm3_name3": null, "adm3_pcode": "CI060204", "adm2_name": "Facobly", "adm2_name1": null, "adm2_name2": null, "adm2_name3": null, "adm2_pcode": "CI1603", "adm1_name": "Guemon", "adm1_name1": null, "adm1_name2": null, "adm1_name3": null, "adm1_pcode": "CI16", "adm0_name": "Côte d'Ivoire", "adm0_name1": null, "adm0_name2": null, "adm0_name3": null, "adm0_pcode": "CI", "valid_on": "2016-04-19", "valid_to": null, "cod_version": "V_01", "name_lng": null, "name_lng1": null, "name_lng2": null, "name_lng3": null }, "geometry": { "type": "Point", "coordinates": [ -7.377570999999875, 7.388674 ] } },
{ "type": "Feature", "properties": { "adm_p_lvl": 1, "name": "Ferkessedougou", "name_1": null, "name_2": null, "name_3": null, "loc_pcode": null, "x_coord": -5.198762, "y_coord": 9.588331, "adm3_name": "Ferkéssédougou", "adm3_name1": null, "adm3_name2": null, "adm3_name3": null, "adm3_pcode": "CI010303", "adm2_name": "Ferkessédougou", "adm2_name1": null, "adm2_name2": null, "adm2_name3": null, "adm2_pcode": "CI3101", "adm1_name": "Tchologo", "adm1_name1": null, "adm1_name2": null, "adm1_name3": null, "adm1_pcode": "CI31", "adm0_name": "Côte d'Ivoire", "adm0_name1": null, "adm0_name2": null, "adm0_name3": null, "adm0_pcode": "CI", "valid_on": "2016-04-19", "valid_to": null, "cod_version": "V_01", "name_lng": null, "name_lng1": null, "name_lng2": null, "name_lng3": null }, "geometry": { "type": "Point", "coordinates": [ -5.198762, 9.588331000000153 ] } },
{ "type": "Feature", "properties": { "adm_p_lvl": 2, "name": "Fresco", "name_1": null, "name_2": null, "name_3": null, "loc_pcode": null, "x_coord": -5.585406, "y_coord": 5.105693, "adm3_name": "Fresco", "adm3_name1": null, "adm3_name2": null, "adm3_name3": null, "adm3_pcode": "CI120302", "adm2_name": "Fresco", "adm2_name1": null, "adm2_name2": null, "adm2_name3": null, "adm2_pcode": "CI1201", "adm1_name": "Gbokle", "adm1_name1": null, "adm1_name2": null, "adm1_name3": null, "adm1_pcode": "CI12", "adm0_name": "Côte d'Ivoire", "adm0_name1": null, "adm0_name2": null, "adm0_name3": null, "adm0_pcode": "CI", "valid_on": "2016-04-19", "valid_to": null, "cod_version": "V_01", "name_lng": null, "name_lng1": null, "name_lng2": null, "name_lng3": null }, "geometry": { "type": "Point", "coordinates": [ -5.585406, 5.105693000000144 ] } },
{ "type": "Feature", "properties": { "adm_p_lvl": 1, "name": "Gagnoa", "name_1": null, "name_2": null, "name_3": null, "loc_pcode": null, "x_coord": -5.947591, "y_coord": 6.13058, "adm3_name": "Gagnoa", "adm3_name1": null, "adm3_name2": null, "adm3_name3": null, "adm3_pcode": "CI110102", "adm2_name": "Gagnoa", "adm2_name1": null, "adm2_name2": null, "adm2_name3": null, "adm2_pcode": "CI1301", "adm1_name": "Goh", "adm1_name1": null, "adm1_name2": null, "adm1_name3": null, "adm1_pcode": "CI13", "adm0_name": "Côte d'Ivoire", "adm0_name1": null, "adm0_name2": null, "adm0_name3": null, "adm0_pcode": "CI", "valid_on": "2016-04-19", "valid_to": null, "cod_version": "V_01", "name_lng": null, "name_lng1": null, "name_lng2": null, "name_lng3": null }, "geometry": { "type": "Point", "coordinates": [ -5.947590999999875, 6.130580000000123 ] } },
{ "type": "Feature", "properties": { "adm_p_lvl": 2, "name": "Gbeleban", "name_1": null, "name_2": null, "name_3": null, "loc_pcode": null, "x_coord": -8.132247, "y_coord": 9.583119, "adm3_name": "Gbéléban", "adm3_name1": null, "adm3_name2": null, "adm3_name3": null, "adm3_pcode": "CI020203", "adm2_name": "Gbeleban", "adm2_name1": null, "adm2_name2": null, "adm2_name3": null, "adm2_pcode": "CI2101", "adm1_name": "Kabadougou", "adm1_name1": null, "adm1_name2": null, "adm1_name3": null, "adm1_pcode": "CI21", "adm0_name": "Côte d'Ivoire", "adm0_name1": null, "adm0_name2": null, "adm0_name3": null, "adm0_pcode": "CI", "valid_on": "2016-04-19", "valid_to": null, "cod_version": "V_01", "name_lng": null, "name_lng1": null, "name_lng2": null, "name_lng3": null }, "geometry": { "type": "Point", "coordinates": [ -8.132246999999893, 9.583119000000181 ] } },
{ "type": "Feature", "properties": { "adm_p_lvl": 2, "name": "Grand-Bassam", "name_1": null, "name_2": null, "name_3": null, "loc_pcode": null, "x_coord": -3.740989, "y_coord": 5.212894, "adm3_name": "Grand-Bassam", "adm3_name1": null, "adm3_name2": null, "adm3_name3": null, "adm3_pcode": "CI090202", "adm2_name": "Grand-Bassam", "adm2_name1": null, "adm2_name2": null, "adm2_name3": null, "adm2_pcode": "CI3003", "adm1_name": "Sud-Comoe", "adm1_name1": null, "adm1_name2": null, "adm1_name3": null, "adm1_pcode": "CI30", "adm0_name": "Côte d'Ivoire", "adm0_name1": null, "adm0_name2": null, "adm0_name3": null, "adm0_pcode": "CI", "valid_on": "2016-04-19", "valid_to": null, "cod_version": "V_01", "name_lng": null, "name_lng1": null, "name_lng2": null, "name_lng3": null }, "geometry": { "type": "Point", "coordinates": [ -3.740989, 5.212894000000119 ] } },
{ "type": "Feature", "properties": { "adm_p_lvl": 2, "name": "Grand-Lahou", "name_1": null, "name_2": null, "name_3": null, "loc_pcode": null, "x_coord": -5.00066, "y_coord": 5.254692, "adm3_name": "Grand Lahou", "adm3_name1": null, "adm3_name2": null, "adm3_name3": null, "adm3_pcode": "CI130301", "adm2_name": "Grand-Lahou", "adm2_name1": null, "adm2_name2": null, "adm2_name3": null, "adm2_pcode": "CI1502", "adm1_name": "Grands Ponts", "adm1_name1": null, "adm1_name2": null, "adm1_name3": null, "adm1_pcode": "CI15", "adm0_name": "Côte d'Ivoire", "adm0_name1": null, "adm0_name2": null, "adm0_name3": null, "adm0_pcode": "CI", "valid_on": "2016-04-19", "valid_to": null, "cod_version": "V_01", "name_lng": null, "name_lng1": null, "name_lng2": null, "name_lng3": null }, "geometry": { "type": "Point", "coordinates": [ -5.000659999999868, 5.254692 ] } },
{ "type": "Feature", "properties": { "adm_p_lvl": 2, "name": "Gueyo", "name_1": null, "name_2": null, "name_3": null, "loc_pcode": null, "x_coord": -6.071814, "y_coord": 5.687557, "adm3_name": "Guéyo", "adm3_name1": null, "adm3_name2": null, "adm3_name3": null, "adm3_pcode": "CI120102", "adm2_name": "Guéyo", "adm2_name1": null, "adm2_name2": null, "adm2_name3": null, "adm2_pcode": "CI2602", "adm1_name": "Nawa", "adm1_name1": null, "adm1_name2": null, "adm1_name3": null, "adm1_pcode": "CI26", "adm0_name": "Côte d'Ivoire", "adm0_name1": null, "adm0_name2": null, "adm0_name3": null, "adm0_pcode": "CI", "valid_on": "2016-04-19", "valid_to": null, "cod_version": "V_01", "name_lng": null, "name_lng1": null, "name_lng2": null, "name_lng3": null }, "geometry": { "type": "Point", "coordinates": [ -6.071814, 5.687557 ] } },
{ "type": "Feature", "properties": { "adm_p_lvl": 1, "name": "Guiglo", "name_1": null, "name_2": null, "name_3": null, "loc_pcode": null, "x_coord": -7.499808, "y_coord": 6.543566, "adm3_name": "Guiglo", "adm3_name1": null, "adm3_name2": null, "adm3_name3": null, "adm3_pcode": "CI060302", "adm2_name": "Guiglo", "adm2_name1": null, "adm2_name2": null, "adm2_name3": null, "adm2_pcode": "CI0902", "adm1_name": "Cavally", "adm1_name1": null, "adm1_name2": null, "adm1_name3": null, "adm1_pcode": "CI09", "adm0_name": "Côte d'Ivoire", "adm0_name1": null, "adm0_name2": null, "adm0_name3": null, "adm0_pcode": "CI", "valid_on": "2016-04-19", "valid_to": null, "cod_version": "V_01", "name_lng": null, "name_lng1": null, "name_lng2": null, "name_lng3": null }, "geometry": { "type": "Point", "coordinates": [ -7.499808, 6.543566 ] } },
{ "type": "Feature", "properties": { "adm_p_lvl": 2, "name": "Guitry", "name_1": null, "name_2": null, "name_3": null, "loc_pcode": null, "x_coord": -5.240508, "y_coord": 5.520432, "adm3_name": "Guitry", "adm3_name1": null, "adm3_name2": null, "adm3_name3": null, "adm3_pcode": "CI110203", "adm2_name": "Guitry", "adm2_name1": null, "adm2_name2": null, "adm2_name3": null, "adm2_pcode": "CI2202", "adm1_name": "Loh-Djiboua", "adm1_name1": null, "adm1_name2": null, "adm1_name3": null, "adm1_pcode": "CI22", "adm0_name": "Côte d'Ivoire", "adm0_name1": null, "adm0_name2": null, "adm0_name3": null, "adm0_pcode": "CI", "valid_on": "2016-04-19", "valid_to": null, "cod_version": "V_01", "name_lng": null, "name_lng1": null, "name_lng2": null, "name_lng3": null }, "geometry": { "type": "Point", "coordinates": [ -5.240508, 5.520432000000142 ] } },
{ "type": "Feature", "properties": { "adm_p_lvl": 2, "name": "Issia", "name_1": null, "name_2": null, "name_3": null, "loc_pcode": null, "x_coord": -6.585777, "y_coord": 6.483777, "adm3_name": "Issia", "adm3_name1": null, "adm3_name2": null, "adm3_name3": null, "adm3_pcode": "CI080104", "adm2_name": "Issia", "adm2_name1": null, "adm2_name2": null, "adm2_name3": null, "adm2_pcode": "CI1802", "adm1_name": "Haut-Sassandra", "adm1_name1": null, "adm1_name2": null, "adm1_name3": null, "adm1_pcode": "CI18", "adm0_name": "Côte d'Ivoire", "adm0_name1": null, "adm0_name2": null, "adm0_name3": null, "adm0_pcode": "CI", "valid_on": "2016-04-19", "valid_to": null, "cod_version": "V_01", "name_lng": null, "name_lng1": null, "name_lng2": null, "name_lng3": null }, "geometry": { "type": "Point", "coordinates": [ -6.585777, 6.483777 ] } },
{ "type": "Feature", "properties": { "adm_p_lvl": 2, "name": "Jacqueville", "name_1": null, "name_2": null, "name_3": null, "loc_pcode": null, "x_coord": -4.414632, "y_coord": 5.205843, "adm3_name": "Jacqueville", "adm3_name1": null, "adm3_name2": null, "adm3_name3": null, "adm3_pcode": "CI130303", "adm2_name": "Jacqueville", "adm2_name1": null, "adm2_name2": null, "adm2_name3": null, "adm2_pcode": "CI1503", "adm1_name": "Grands Ponts", "adm1_name1": null, "adm1_name2": null, "adm1_name3": null, "adm1_pcode": "CI15", "adm0_name": "Côte d'Ivoire", "adm0_name1": null, "adm0_name2": null, "adm0_name3": null, "adm0_pcode": "CI", "valid_on": "2016-04-19", "valid_to": null, "cod_version": "V_01", "name_lng": null, "name_lng1": null, "name_lng2": null, "name_lng3": null }, "geometry": { "type": "Point", "coordinates": [ -4.41463199999987, 5.205843 ] } },
{ "type": "Feature", "properties": { "adm_p_lvl": 2, "name": "Kani", "name_1": null, "name_2": null, "name_3": null, "loc_pcode": null, "x_coord": -6.605461, "y_coord": 8.477427, "adm3_name": "Kani", "adm3_name1": null, "adm3_name2": null, "adm3_name3": null, "adm3_pcode": "CI050301", "adm2_name": "Kani", "adm2_name1": null, "adm2_name2": null, "adm2_name3": null, "adm2_pcode": "CI3301", "adm1_name": "Worodougou", "adm1_name1": null, "adm1_name2": null, "adm1_name3": null, "adm1_pcode": "CI33", "adm0_name": "Côte d'Ivoire", "adm0_name1": null, "adm0_name2": null, "adm0_name3": null, "adm0_pcode": "CI", "valid_on": "2016-04-19", "valid_to": null, "cod_version": "V_01", "name_lng": null, "name_lng1": null, "name_lng2": null, "name_lng3": null }, "geometry": { "type": "Point", "coordinates": [ -6.605461, 8.477427 ] } },
{ "type": "Feature", "properties": { "adm_p_lvl": 2, "name": "Kaniasso", "name_1": null, "name_2": null, "name_3": null, "loc_pcode": null, "x_coord": -7.512276, "y_coord": 9.8149, "adm3_name": "Kaniasso", "adm3_name1": null, "adm3_name2": null, "adm3_name3": null, "adm3_pcode": "CI020102", "adm2_name": "Kaniasso", "adm2_name1": null, "adm2_name2": null, "adm2_name3": null, "adm2_pcode": "CI1001", "adm1_name": "Folon", "adm1_name1": null, "adm1_name2": null, "adm1_name3": null, "adm1_pcode": "CI10", "adm0_name": "Côte d'Ivoire", "adm0_name1": null, "adm0_name2": null, "adm0_name3": null, "adm0_pcode": "CI", "valid_on": "2016-04-19", "valid_to": null, "cod_version": "V_01", "name_lng": null, "name_lng1": null, "name_lng2": null, "name_lng3": null }, "geometry": { "type": "Point", "coordinates": [ -7.512276, 9.8149 ] } },
{ "type": "Feature", "properties": { "adm_p_lvl": 1, "name": "Katiola", "name_1": null, "name_2": null, "name_3": null, "loc_pcode": null, "x_coord": -5.09836, "y_coord": 8.136761, "adm3_name": "Katiola", "adm3_name1": null, "adm3_name2": null, "adm3_name3": null, "adm3_pcode": "CI040103", "adm2_name": "Katiola", "adm2_name1": null, "adm2_name2": null, "adm2_name3": null, "adm2_pcode": "CI1702", "adm1_name": "Hambol", "adm1_name1": null, "adm1_name2": null, "adm1_name3": null, "adm1_pcode": "CI17", "adm0_name": "Côte d'Ivoire", "adm0_name1": null, "adm0_name2": null, "adm0_name3": null, "adm0_pcode": "CI", "valid_on": "2016-04-19", "valid_to": null, "cod_version": "V_01", "name_lng": null, "name_lng1": null, "name_lng2": null, "name_lng3": null }, "geometry": { "type": "Point", "coordinates": [ -5.09836, 8.136761 ] } },
{ "type": "Feature", "properties": { "adm_p_lvl": 2, "name": "Kong", "name_1": null, "name_2": null, "name_3": null, "loc_pcode": null, "x_coord": -4.608821, "y_coord": 9.153213, "adm3_name": "Kong", "adm3_name1": null, "adm3_name2": null, "adm3_name3": null, "adm3_pcode": "CI010302", "adm2_name": "Kong", "adm2_name1": null, "adm2_name2": null, "adm2_name3": null, "adm2_pcode": "CI3102", "adm1_name": "Tchologo", "adm1_name1": null, "adm1_name2": null, "adm1_name3": null, "adm1_pcode": "CI31", "adm0_name": "Côte d'Ivoire", "adm0_name1": null, "adm0_name2": null, "adm0_name3": null, "adm0_pcode": "CI", "valid_on": "2016-04-19", "valid_to": null, "cod_version": "V_01", "name_lng": null, "name_lng1": null, "name_lng2": null, "name_lng3": null }, "geometry": { "type": "Point", "coordinates": [ -4.608821, 9.153213000000108 ] } },
{ "type": "Feature", "properties": { "adm_p_lvl": 2, "name": "Koro", "name_1": null, "name_2": null, "name_3": null, "loc_pcode": null, "x_coord": -7.462649, "y_coord": 8.554372, "adm3_name": "Koro", "adm3_name1": null, "adm3_name2": null, "adm3_name3": null, "adm3_pcode": "CI050201", "adm2_name": "Koro", "adm2_name1": null, "adm2_name2": null, "adm2_name3": null, "adm2_pcode": "CI0401", "adm1_name": "Bafing", "adm1_name1": null, "adm1_name2": null, "adm1_name3": null, "adm1_pcode": "CI04", "adm0_name": "Côte d'Ivoire", "adm0_name1": null, "adm0_name2": null, "adm0_name3": null, "adm0_pcode": "CI", "valid_on": "2016-04-19", "valid_to": null, "cod_version": "V_01", "name_lng": null, "name_lng1": null, "name_lng2": null, "name_lng3": null }, "geometry": { "type": "Point", "coordinates": [ -7.462649, 8.554372 ] } },
{ "type": "Feature", "properties": { "adm_p_lvl": 1, "name": "Korogho", "name_1": null, "name_2": null, "name_3": null, "loc_pcode": null, "x_coord": -5.630161, "y_coord": 9.461313, "adm3_name": "Korhogo", "adm3_name1": null, "adm3_name2": null, "adm3_name3": null, "adm3_pcode": "CI010204", "adm2_name": "Korhogo", "adm2_name1": null, "adm2_name2": null, "adm2_name3": null, "adm2_pcode": "CI2802", "adm1_name": "Poro", "adm1_name1": null, "adm1_name2": null, "adm1_name3": null, "adm1_pcode": "CI28", "adm0_name": "Côte d'Ivoire", "adm0_name1": null, "adm0_name2": null, "adm0_name3": null, "adm0_pcode": "CI", "valid_on": "2016-04-19", "valid_to": null, "cod_version": "V_01", "name_lng": null, "name_lng1": null, "name_lng2": null, "name_lng3": null }, "geometry": { "type": "Point", "coordinates": [ -5.630161, 9.461313 ] } },
{ "type": "Feature", "properties": { "adm_p_lvl": 2, "name": "Kouassi-Kouassikr", "name_1": null, "name_2": null, "name_3": null, "loc_pcode": null, "x_coord": -4.676781, "y_coord": 7.342915, "adm3_name": "Kouassi-Kouassikro", "adm3_name1": null, "adm3_name2": null, "adm3_name3": null, "adm3_pcode": "CI070303", "adm2_name": "Kouassi-Kouassikro", "adm2_name1": null, "adm2_name2": null, "adm2_name3": null, "adm2_pcode": "CI2703", "adm1_name": "N'Zi", "adm1_name1": null, "adm1_name2": null, "adm1_name3": null, "adm1_pcode": "CI27", "adm0_name": "Côte d'Ivoire", "adm0_name1": null, "adm0_name2": null, "adm0_name3": null, "adm0_pcode": "CI", "valid_on": "2016-04-19", "valid_to": null, "cod_version": "V_01", "name_lng": null, "name_lng1": null, "name_lng2": null, "name_lng3": null }, "geometry": { "type": "Point", "coordinates": [ -4.676781, 7.342915 ] } },
{ "type": "Feature", "properties": { "adm_p_lvl": 2, "name": "Kouibly", "name_1": null, "name_2": null, "name_3": null, "loc_pcode": null, "x_coord": -7.236009, "y_coord": 7.256397, "adm3_name": "Kouibly", "adm3_name1": null, "adm3_name2": null, "adm3_name3": null, "adm3_pcode": "CI060201", "adm2_name": "Kouibly", "adm2_name1": null, "adm2_name2": null, "adm2_name3": null, "adm2_pcode": "CI1604", "adm1_name": "Guemon", "adm1_name1": null, "adm1_name2": null, "adm1_name3": null, "adm1_pcode": "CI16", "adm0_name": "Côte d'Ivoire", "adm0_name1": null, "adm0_name2": null, "adm0_name3": null, "adm0_pcode": "CI", "valid_on": "2016-04-19", "valid_to": null, "cod_version": "V_01", "name_lng": null, "name_lng1": null, "name_lng2": null, "name_lng3": null }, "geometry": { "type": "Point", "coordinates": [ -7.236009, 7.256397000000106 ] } },
{ "type": "Feature", "properties": { "adm_p_lvl": 2, "name": "Koun Fao", "name_1": null, "name_2": null, "name_3": null, "loc_pcode": null, "x_coord": -3.253489, "y_coord": 7.487674, "adm3_name": "Koun-Fao", "adm3_name1": null, "adm3_name2": null, "adm3_name3": null, "adm3_pcode": "CI030205", "adm2_name": "Koun Fao", "adm2_name1": null, "adm2_name2": null, "adm2_name3": null, "adm2_pcode": "CI1402", "adm1_name": "Gontougo", "adm1_name1": null, "adm1_name2": null, "adm1_name3": null, "adm1_pcode": "CI14", "adm0_name": "Côte d'Ivoire", "adm0_name1": null, "adm0_name2": null, "adm0_name3": null, "adm0_pcode": "CI", "valid_on": "2016-04-19", "valid_to": null, "cod_version": "V_01", "name_lng": null, "name_lng1": null, "name_lng2": null, "name_lng3": null }, "geometry": { "type": "Point", "coordinates": [ -3.253489, 7.487674 ] } },
{ "type": "Feature", "properties": { "adm_p_lvl": 2, "name": "Kounahiri", "name_1": null, "name_2": null, "name_3": null, "loc_pcode": null, "x_coord": -5.835674, "y_coord": 7.790793, "adm3_name": "Kounahiri", "adm3_name1": null, "adm3_name2": null, "adm3_name3": null, "adm3_pcode": "CI050102", "adm2_name": "Kounahiri", "adm2_name1": null, "adm2_name2": null, "adm2_name3": null, "adm2_pcode": "CI0702", "adm1_name": "Bere", "adm1_name1": null, "adm1_name2": null, "adm1_name3": null, "adm1_pcode": "CI07", "adm0_name": "Côte d'Ivoire", "adm0_name1": null, "adm0_name2": null, "adm0_name3": null, "adm0_pcode": "CI", "valid_on": "2016-04-19", "valid_to": null, "cod_version": "V_01", "name_lng": null, "name_lng1": null, "name_lng2": null, "name_lng3": null }, "geometry": { "type": "Point", "coordinates": [ -5.835674, 7.790793 ] } },
{ "type": "Feature", "properties": { "adm_p_lvl": 2, "name": "Kouto", "name_1": null, "name_2": null, "name_3": null, "loc_pcode": null, "x_coord": -6.40888, "y_coord": 9.891698, "adm3_name": "Kouto", "adm3_name1": null, "adm3_name2": null, "adm3_name3": null, "adm3_pcode": "CI010102", "adm2_name": "Kouto", "adm2_name1": null, "adm2_name2": null, "adm2_name3": null, "adm2_pcode": "CI0502", "adm1_name": "Bagoue", "adm1_name1": null, "adm1_name2": null, "adm1_name3": null, "adm1_pcode": "CI05", "adm0_name": "Côte d'Ivoire", "adm0_name1": null, "adm0_name2": null, "adm0_name3": null, "adm0_pcode": "CI", "valid_on": "2016-04-19", "valid_to": null, "cod_version": "V_01", "name_lng": null, "name_lng1": null, "name_lng2": null, "name_lng3": null }, "geometry": { "type": "Point", "coordinates": [ -6.40888, 9.89169800000019 ] } },
{ "type": "Feature", "properties": { "adm_p_lvl": 2, "name": "Lakota", "name_1": null, "name_2": null, "name_3": null, "loc_pcode": null, "x_coord": -5.682395, "y_coord": 5.851713, "adm3_name": "Lakota", "adm3_name1": null, "adm3_name2": null, "adm3_name3": null, "adm3_pcode": "CI110201", "adm2_name": "Lakota", "adm2_name1": null, "adm2_name2": null, "adm2_name3": null, "adm2_pcode": "CI2203", "adm1_name": "Loh-Djiboua", "adm1_name1": null, "adm1_name2": null, "adm1_name3": null, "adm1_pcode": "CI22", "adm0_name": "Côte d'Ivoire", "adm0_name1": null, "adm0_name2": null, "adm0_name3": null, "adm0_pcode": "CI", "valid_on": "2016-04-19", "valid_to": null, "cod_version": "V_01", "name_lng": null, "name_lng1": null, "name_lng2": null, "name_lng3": null }, "geometry": { "type": "Point", "coordinates": [ -5.682395, 5.851713000000188 ] } },
{ "type": "Feature", "properties": { "adm_p_lvl": 2, "name": "M'bahiakro", "name_1": null, "name_2": null, "name_3": null, "loc_pcode": null, "x_coord": -4.341621, "y_coord": 7.456978, "adm3_name": "M'Bahiakro", "adm3_name1": null, "adm3_name2": null, "adm3_name3": null, "adm3_pcode": "CI070102", "adm2_name": "M'Bahiakro", "adm2_name1": null, "adm2_name2": null, "adm2_name3": null, "adm2_pcode": "CI1902", "adm1_name": "Iffou", "adm1_name1": null, "adm1_name2": null, "adm1_name3": null, "adm1_pcode": "CI19", "adm0_name": "Côte d'Ivoire", "adm0_name1": null, "adm0_name2": null, "adm0_name3": null, "adm0_pcode": "CI", "valid_on": "2016-04-19", "valid_to": null, "cod_version": "V_01", "name_lng": null, "name_lng1": null, "name_lng2": null, "name_lng3": null }, "geometry": { "type": "Point", "coordinates": [ -4.341621, 7.456978000000106 ] } },
{ "type": "Feature", "properties": { "adm_p_lvl": 2, "name": "M'batto", "name_1": null, "name_2": null, "name_3": null, "loc_pcode": null, "x_coord": -4.358123, "y_coord": 6.472741, "adm3_name": "M'Batto", "adm3_name1": null, "adm3_name2": null, "adm3_name3": null, "adm3_pcode": "CI070405", "adm2_name": "M'Batto", "adm2_name1": null, "adm2_name2": null, "adm2_name3": null, "adm2_pcode": "CI2503", "adm1_name": "Moronou", "adm1_name1": null, "adm1_name2": null, "adm1_name3": null, "adm1_pcode": "CI25", "adm0_name": "Côte d'Ivoire", "adm0_name1": null, "adm0_name2": null, "adm0_name3": null, "adm0_pcode": "CI", "valid_on": "2016-04-19", "valid_to": null, "cod_version": "V_01", "name_lng": null, "name_lng1": null, "name_lng2": null, "name_lng3": null }, "geometry": { "type": "Point", "coordinates": [ -4.358123, 6.472741000000156 ] } },
{ "type": "Feature", "properties": { "adm_p_lvl": 2, "name": "M'bengue", "name_1": null, "name_2": null, "name_3": null, "loc_pcode": null, "x_coord": -5.900408, "y_coord": 10.005676, "adm3_name": "M'Bengué", "adm3_name1": null, "adm3_name2": null, "adm3_name3": null, "adm3_pcode": "CI010201", "adm2_name": "M'Bengué", "adm2_name1": null, "adm2_name2": null, "adm2_name3": null, "adm2_pcode": "CI2803", "adm1_name": "Poro", "adm1_name1": null, "adm1_name2": null, "adm1_name3": null, "adm1_pcode": "CI28", "adm0_name": "Côte d'Ivoire", "adm0_name1": null, "adm0_name2": null, "adm0_name3": null, "adm0_pcode": "CI", "valid_on": "2016-04-19", "valid_to": null, "cod_version": "V_01", "name_lng": null, "name_lng1": null, "name_lng2": null, "name_lng3": null }, "geometry": { "type": "Point", "coordinates": [ -5.900408, 10.005676000000108 ] } },
{ "type": "Feature", "properties": { "adm_p_lvl": 2, "name": "Madinani", "name_1": null, "name_2": null, "name_3": null, "loc_pcode": null, "x_coord": -6.939245, "y_coord": 9.613966, "adm3_name": "Madinani", "adm3_name1": null, "adm3_name2": null, "adm3_name3": null, "adm3_pcode": "CI020204", "adm2_name": "Madinani", "adm2_name1": null, "adm2_name2": null, "adm2_name3": null, "adm2_pcode": "CI2102", "adm1_name": "Kabadougou", "adm1_name1": null, "adm1_name2": null, "adm1_name3": null, "adm1_pcode": "CI21", "adm0_name": "Côte d'Ivoire", "adm0_name1": null, "adm0_name2": null, "adm0_name3": null, "adm0_pcode": "CI", "valid_on": "2016-04-19", "valid_to": null, "cod_version": "V_01", "name_lng": null, "name_lng1": null, "name_lng2": null, "name_lng3": null }, "geometry": { "type": "Point", "coordinates": [ -6.939245, 9.613966 ] } },
{ "type": "Feature", "properties": { "adm_p_lvl": 1, "name": "Man", "name_1": null, "name_2": null, "name_3": null, "loc_pcode": null, "x_coord": -7.553576, "y_coord": 7.407807, "adm3_name": "Man", "adm3_name1": null, "adm3_name2": null, "adm3_name3": null, "adm3_pcode": "CI060102", "adm2_name": "Man", "adm2_name1": null, "adm2_name2": null, "adm2_name3": null, "adm2_pcode": "CI3203", "adm1_name": "Tonkpi", "adm1_name1": null, "adm1_name2": null, "adm1_name3": null, "adm1_pcode": "CI32", "adm0_name": "Côte d'Ivoire", "adm0_name1": null, "adm0_name2": null, "adm0_name3": null, "adm0_pcode": "CI", "valid_on": "2016-04-19", "valid_to": null, "cod_version": "V_01", "name_lng": null, "name_lng1": null, "name_lng2": null, "name_lng3": null }, "geometry": { "type": "Point", "coordinates": [ -7.553576, 7.407807 ] } },
{ "type": "Feature", "properties": { "adm_p_lvl": 1, "name": "Mankono", "name_1": null, "name_2": null, "name_3": null, "loc_pcode": null, "x_coord": -6.189151, "y_coord": 8.056462, "adm3_name": "Mankono", "adm3_name1": null, "adm3_name2": null, "adm3_name3": null, "adm3_pcode": "CI050103", "adm2_name": "Mankono", "adm2_name1": null, "adm2_name2": null, "adm2_name3": null, "adm2_pcode": "CI0703", "adm1_name": "Bere", "adm1_name1": null, "adm1_name2": null, "adm1_name3": null, "adm1_pcode": "CI07", "adm0_name": "Côte d'Ivoire", "adm0_name1": null, "adm0_name2": null, "adm0_name3": null, "adm0_pcode": "CI", "valid_on": "2016-04-19", "valid_to": null, "cod_version": "V_01", "name_lng": null, "name_lng1": null, "name_lng2": null, "name_lng3": null }, "geometry": { "type": "Point", "coordinates": [ -6.189151, 8.056462 ] } },
{ "type": "Feature", "properties": { "adm_p_lvl": 2, "name": "Meagui", "name_1": null, "name_2": null, "name_3": null, "loc_pcode": null, "x_coord": -6.55728, "y_coord": 5.404209, "adm3_name": "Méagui", "adm3_name1": null, "adm3_name2": null, "adm3_name3": null, "adm3_pcode": "CI120104", "adm2_name": "Méagui", "adm2_name1": null, "adm2_name2": null, "adm2_name3": null, "adm2_pcode": "CI2603", "adm1_name": "Nawa", "adm1_name1": null, "adm1_name2": null, "adm1_name3": null, "adm1_pcode": "CI26", "adm0_name": "Côte d'Ivoire", "adm0_name1": null, "adm0_name2": null, "adm0_name3": null, "adm0_pcode": "CI", "valid_on": "2016-04-19", "valid_to": null, "cod_version": "V_01", "name_lng": null, "name_lng1": null, "name_lng2": null, "name_lng3": null }, "geometry": { "type": "Point", "coordinates": [ -6.55728, 5.404209 ] } },
{ "type": "Feature", "properties": { "adm_p_lvl": 1, "name": "Minignan", "name_1": null, "name_2": null, "name_3": null, "loc_pcode": null, "x_coord": -7.839607, "y_coord": 9.994919, "adm3_name": "Minignan", "adm3_name1": null, "adm3_name2": null, "adm3_name3": null, "adm3_pcode": "CI020101", "adm2_name": "Minignan", "adm2_name1": null, "adm2_name2": null, "adm2_name3": null, "adm2_pcode": "CI1002", "adm1_name": "Folon", "adm1_name1": null, "adm1_name2": null, "adm1_name3": null, "adm1_pcode": "CI10", "adm0_name": "Côte d'Ivoire", "adm0_name1": null, "adm0_name2": null, "adm0_name3": null, "adm0_pcode": "CI", "valid_on": "2016-04-19", "valid_to": null, "cod_version": "V_01", "name_lng": null, "name_lng1": null, "name_lng2": null, "name_lng3": null }, "geometry": { "type": "Point", "coordinates": [ -7.839607, 9.994919 ] } },
{ "type": "Feature", "properties": { "adm_p_lvl": 2, "name": "Nassian", "name_1": null, "name_2": null, "name_3": null, "loc_pcode": null, "x_coord": -3.473202, "y_coord": 8.45227, "adm3_name": "Nassian", "adm3_name1": null, "adm3_name2": null, "adm3_name3": null, "adm3_pcode": "CI030104", "adm2_name": "Nassian", "adm2_name1": null, "adm2_name2": null, "adm2_name3": null, "adm2_pcode": "CI0803", "adm1_name": "Bounkani", "adm1_name1": null, "adm1_name2": null, "adm1_name3": null, "adm1_pcode": "CI08", "adm0_name": "Côte d'Ivoire", "adm0_name1": null, "adm0_name2": null, "adm0_name3": null, "adm0_pcode": "CI", "valid_on": "2016-04-19", "valid_to": null, "cod_version": "V_01", "name_lng": null, "name_lng1": null, "name_lng2": null, "name_lng3": null }, "geometry": { "type": "Point", "coordinates": [ -3.473202, 8.45227 ] } },
{ "type": "Feature", "properties": { "adm_p_lvl": 2, "name": "Niakaramandougou", "name_1": null, "name_2": null, "name_3": null, "loc_pcode": null, "x_coord": -5.291405, "y_coord": 8.658262, "adm3_name": "Niakaramandougou", "adm3_name1": null, "adm3_name2": null, "adm3_name3": null, "adm3_pcode": "CI040101", "adm2_name": "Niakaramandougou", "adm2_name1": null, "adm2_name2": null, "adm2_name3": null, "adm2_pcode": "CI1703", "adm1_name": "Hambol", "adm1_name1": null, "adm1_name2": null, "adm1_name3": null, "adm1_pcode": "CI17", "adm0_name": "Côte d'Ivoire", "adm0_name1": null, "adm0_name2": null, "adm0_name3": null, "adm0_pcode": "CI", "valid_on": "2016-04-19", "valid_to": null, "cod_version": "V_01", "name_lng": null, "name_lng1": null, "name_lng2": null, "name_lng3": null }, "geometry": { "type": "Point", "coordinates": [ -5.291405, 8.65826200000015 ] } },
{ "type": "Feature", "properties": { "adm_p_lvl": 1, "name": "Odienne", "name_1": null, "name_2": null, "name_3": null, "loc_pcode": null, "x_coord": -7.56412, "y_coord": 9.503454, "adm3_name": "Odienné", "adm3_name1": null, "adm3_name2": null, "adm3_name3": null, "adm3_pcode": "CI020205", "adm2_name": "Odienne", "adm2_name1": null, "adm2_name2": null, "adm2_name3": null, "adm2_pcode": "CI2103", "adm1_name": "Kabadougou", "adm1_name1": null, "adm1_name2": null, "adm1_name3": null, "adm1_pcode": "CI21", "adm0_name": "Côte d'Ivoire", "adm0_name1": null, "adm0_name2": null, "adm0_name3": null, "adm0_pcode": "CI", "valid_on": "2016-04-19", "valid_to": null, "cod_version": "V_01", "name_lng": null, "name_lng1": null, "name_lng2": null, "name_lng3": null }, "geometry": { "type": "Point", "coordinates": [ -7.564119999999889, 9.503454 ] } },
{ "type": "Feature", "properties": { "adm_p_lvl": 2, "name": "Ouangolodougou", "name_1": null, "name_2": null, "name_3": null, "loc_pcode": null, "x_coord": -5.14997, "y_coord": 9.970468, "adm3_name": "Ouangolodougou", "adm3_name1": null, "adm3_name2": null, "adm3_name3": null, "adm3_pcode": "CI010301", "adm2_name": "Ouangolodougou", "adm2_name1": null, "adm2_name2": null, "adm2_name3": null, "adm2_pcode": "CI3103", "adm1_name": "Tchologo", "adm1_name1": null, "adm1_name2": null, "adm1_name3": null, "adm1_pcode": "CI31", "adm0_name": "Côte d'Ivoire", "adm0_name1": null, "adm0_name2": null, "adm0_name3": null, "adm0_pcode": "CI", "valid_on": "2016-04-19", "valid_to": null, "cod_version": "V_01", "name_lng": null, "name_lng1": null, "name_lng2": null, "name_lng3": null }, "geometry": { "type": "Point", "coordinates": [ -5.14997, 9.970468 ] } },
{ "type": "Feature", "properties": { "adm_p_lvl": 2, "name": "Ouaninou", "name_1": null, "name_2": null, "name_3": null, "loc_pcode": null, "x_coord": -7.866819, "y_coord": 8.239575, "adm3_name": "Ouaninou", "adm3_name1": null, "adm3_name2": null, "adm3_name3": null, "adm3_pcode": "CI050203", "adm2_name": "Ouaninou", "adm2_name1": null, "adm2_name2": null, "adm2_name3": null, "adm2_pcode": "CI0402", "adm1_name": "Bafing", "adm1_name1": null, "adm1_name2": null, "adm1_name3": null, "adm1_pcode": "CI04", "adm0_name": "Côte d'Ivoire", "adm0_name1": null, "adm0_name2": null, "adm0_name3": null, "adm0_pcode": "CI", "valid_on": "2016-04-19", "valid_to": null, "cod_version": "V_01", "name_lng": null, "name_lng1": null, "name_lng2": null, "name_lng3": null }, "geometry": { "type": "Point", "coordinates": [ -7.86681899999985, 8.239575000000173 ] } },
{ "type": "Feature", "properties": { "adm_p_lvl": 2, "name": "Oume", "name_1": null, "name_2": null, "name_3": null, "loc_pcode": null, "x_coord": -5.415029, "y_coord": 6.382211, "adm3_name": "Oumé", "adm3_name1": null, "adm3_name2": null, "adm3_name3": null, "adm3_pcode": "CI110101", "adm2_name": "Oumé", "adm2_name1": null, "adm2_name2": null, "adm2_name3": null, "adm2_pcode": "CI1302", "adm1_name": "Goh", "adm1_name1": null, "adm1_name2": null, "adm1_name3": null, "adm1_pcode": "CI13", "adm0_name": "Côte d'Ivoire", "adm0_name1": null, "adm0_name2": null, "adm0_name3": null, "adm0_pcode": "CI", "valid_on": "2016-04-19", "valid_to": null, "cod_version": "V_01", "name_lng": null, "name_lng1": null, "name_lng2": null, "name_lng3": null }, "geometry": { "type": "Point", "coordinates": [ -5.415028999999834, 6.382211 ] } },
{ "type": "Feature", "properties": { "adm_p_lvl": 2, "name": "Prikro", "name_1": null, "name_2": null, "name_3": null, "loc_pcode": null, "x_coord": -3.99591, "y_coord": 7.649134, "adm3_name": "Prikro", "adm3_name1": null, "adm3_name2": null, "adm3_name3": null, "adm3_pcode": "CI070101", "adm2_name": "Prikro", "adm2_name1": null, "adm2_name2": null, "adm2_name3": null, "adm2_pcode": "CI1903", "adm1_name": "Iffou", "adm1_name1": null, "adm1_name2": null, "adm1_name3": null, "adm1_pcode": "CI19", "adm0_name": "Côte d'Ivoire", "adm0_name1": null, "adm0_name2": null, "adm0_name3": null, "adm0_pcode": "CI", "valid_on": "2016-04-19", "valid_to": null, "cod_version": "V_01", "name_lng": null, "name_lng1": null, "name_lng2": null, "name_lng3": null }, "geometry": { "type": "Point", "coordinates": [ -3.99591, 7.649134 ] } },
{ "type": "Feature", "properties": { "adm_p_lvl": 2, "name": "Sakassou", "name_1": null, "name_2": null, "name_3": null, "loc_pcode": null, "x_coord": -5.29048, "y_coord": 7.448453, "adm3_name": "Sakassou", "adm3_name1": null, "adm3_name2": null, "adm3_name3": null, "adm3_pcode": "CI040204", "adm2_name": "Sakassou", "adm2_name1": null, "adm2_name2": null, "adm2_name3": null, "adm2_pcode": "CI1104", "adm1_name": "Gbeke", "adm1_name1": null, "adm1_name2": null, "adm1_name3": null, "adm1_pcode": "CI11", "adm0_name": "Côte d'Ivoire", "adm0_name1": null, "adm0_name2": null, "adm0_name3": null, "adm0_pcode": "CI", "valid_on": "2016-04-19", "valid_to": null, "cod_version": "V_01", "name_lng": null, "name_lng1": null, "name_lng2": null, "name_lng3": null }, "geometry": { "type": "Point", "coordinates": [ -5.29048, 7.448453 ] } },
{ "type": "Feature", "properties": { "adm_p_lvl": 2, "name": "Samatiguila", "name_1": null, "name_2": null, "name_3": null, "loc_pcode": null, "x_coord": -7.56356, "y_coord": 9.822455, "adm3_name": "Samatiguila", "adm3_name1": null, "adm3_name2": null, "adm3_name3": null, "adm3_pcode": "CI020201", "adm2_name": "Samatiguila", "adm2_name1": null, "adm2_name2": null, "adm2_name3": null, "adm2_pcode": "CI2104", "adm1_name": "Kabadougou", "adm1_name1": null, "adm1_name2": null, "adm1_name3": null, "adm1_pcode": "CI21", "adm0_name": "Côte d'Ivoire", "adm0_name1": null, "adm0_name2": null, "adm0_name3": null, "adm0_pcode": "CI", "valid_on": "2016-04-19", "valid_to": null, "cod_version": "V_01", "name_lng": null, "name_lng1": null, "name_lng2": null, "name_lng3": null }, "geometry": { "type": "Point", "coordinates": [ -7.56356, 9.822455000000105 ] } },
{ "type": "Feature", "properties": { "adm_p_lvl": 1, "name": "San Pedro", "name_1": null, "name_2": null, "name_3": null, "loc_pcode": null, "x_coord": -6.654563, "y_coord": 4.757043, "adm3_name": "San-Pédro", "adm3_name1": null, "adm3_name2": null, "adm3_name3": null, "adm3_pcode": "CI120202", "adm2_name": "San Pédro", "adm2_name1": null, "adm2_name2": null, "adm2_name3": null, "adm2_pcode": "CI2901", "adm1_name": "San Pedro", "adm1_name1": null, "adm1_name2": null, "adm1_name3": null, "adm1_pcode": "CI29", "adm0_name": "Côte d'Ivoire", "adm0_name1": null, "adm0_name2": null, "adm0_name3": null, "adm0_pcode": "CI", "valid_on": "2016-04-19", "valid_to": null, "cod_version": "V_01", "name_lng": null, "name_lng1": null, "name_lng2": null, "name_lng3": null }, "geometry": { "type": "Point", "coordinates": [ -6.654563, 4.757043 ] } },
{ "type": "Feature", "properties": { "adm_p_lvl": 2, "name": "Sandegue", "name_1": null, "name_2": null, "name_3": null, "loc_pcode": null, "x_coord": -3.580833, "y_coord": 7.953645, "adm3_name": "Sandégué", "adm3_name1": null, "adm3_name2": null, "adm3_name3": null, "adm3_pcode": "CI030202", "adm2_name": "Sandegue", "adm2_name1": null, "adm2_name2": null, "adm2_name3": null, "adm2_pcode": "CI1403", "adm1_name": "Gontougo", "adm1_name1": null, "adm1_name2": null, "adm1_name3": null, "adm1_pcode": "CI14", "adm0_name": "Côte d'Ivoire", "adm0_name1": null, "adm0_name2": null, "adm0_name3": null, "adm0_pcode": "CI", "valid_on": "2016-04-19", "valid_to": null, "cod_version": "V_01", "name_lng": null, "name_lng1": null, "name_lng2": null, "name_lng3": null }, "geometry": { "type": "Point", "coordinates": [ -3.580833, 7.953645 ] } },
{ "type": "Feature", "properties": { "adm_p_lvl": 1, "name": "Sassandra", "name_1": null, "name_2": null, "name_3": null, "loc_pcode": null, "x_coord": -6.089545, "y_coord": 4.952464, "adm3_name": "Sassandra", "adm3_name1": null, "adm3_name2": null, "adm3_name3": null, "adm3_pcode": "CI120301", "adm2_name": "Sassandra", "adm2_name1": null, "adm2_name2": null, "adm2_name3": null, "adm2_pcode": "CI1202", "adm1_name": "Gbokle", "adm1_name1": null, "adm1_name2": null, "adm1_name3": null, "adm1_pcode": "CI12", "adm0_name": "Côte d'Ivoire", "adm0_name1": null, "adm0_name2": null, "adm0_name3": null, "adm0_pcode": "CI", "valid_on": "2016-04-19", "valid_to": null, "cod_version": "V_01", "name_lng": null, "name_lng1": null, "name_lng2": null, "name_lng3": null }, "geometry": { "type": "Point", "coordinates": [ -6.089545, 4.952464000000134 ] } },
{ "type": "Feature", "properties": { "adm_p_lvl": 1, "name": "Seguela", "name_1": null, "name_2": null, "name_3": null, "loc_pcode": null, "x_coord": -6.676192, "y_coord": 7.962001, "adm3_name": "Séguéla", "adm3_name1": null, "adm3_name2": null, "adm3_name3": null, "adm3_pcode": "CI050302", "adm2_name": "Séguéla", "adm2_name1": null, "adm2_name2": null, "adm2_name3": null, "adm2_pcode": "CI3302", "adm1_name": "Worodougou", "adm1_name1": null, "adm1_name2": null, "adm1_name3": null, "adm1_pcode": "CI33", "adm0_name": "Côte d'Ivoire", "adm0_name1": null, "adm0_name2": null, "adm0_name3": null, "adm0_pcode": "CI", "valid_on": "2016-04-19", "valid_to": null, "cod_version": "V_01", "name_lng": null, "name_lng1": null, "name_lng2": null, "name_lng3": null }, "geometry": { "type": "Point", "coordinates": [ -6.676192, 7.9620010000001 ] } },
{ "type": "Feature", "properties": { "adm_p_lvl": 2, "name": "Seguelon", "name_1": null, "name_2": null, "name_3": null, "loc_pcode": null, "x_coord": -7.122356, "y_coord": 9.356142, "adm3_name": "Séguélon", "adm3_name1": null, "adm3_name2": null, "adm3_name3": null, "adm3_pcode": "CI020202", "adm2_name": "Séguélon", "adm2_name1": null, "adm2_name2": null, "adm2_name3": null, "adm2_pcode": "CI2105", "adm1_name": "Kabadougou", "adm1_name1": null, "adm1_name2": null, "adm1_name3": null, "adm1_pcode": "CI21", "adm0_name": "Côte d'Ivoire", "adm0_name1": null, "adm0_name2": null, "adm0_name3": null, "adm0_pcode": "CI", "valid_on": "2016-04-19", "valid_to": null, "cod_version": "V_01", "name_lng": null, "name_lng1": null, "name_lng2": null, "name_lng3": null }, "geometry": { "type": "Point", "coordinates": [ -7.122356, 9.356142 ] } },
{ "type": "Feature", "properties": { "adm_p_lvl": 2, "name": "Sikensi", "name_1": null, "name_2": null, "name_3": null, "loc_pcode": null, "x_coord": -4.573622, "y_coord": 5.667321, "adm3_name": "Sikensi", "adm3_name1": null, "adm3_name2": null, "adm3_name3": null, "adm3_pcode": "CI130203", "adm2_name": "Sikensi", "adm2_name1": null, "adm2_name2": null, "adm2_name3": null, "adm2_pcode": "CI1302", "adm1_name": "Agneby-Tiassa", "adm1_name1": null, "adm1_name2": null, "adm1_name3": null, "adm1_pcode": "CI03", "adm0_name": "Côte d'Ivoire", "adm0_name1": null, "adm0_name2": null, "adm0_name3": null, "adm0_pcode": "CI", "valid_on": "2016-04-19", "valid_to": null, "cod_version": "V_01", "name_lng": null, "name_lng1": null, "name_lng2": null, "name_lng3": null }, "geometry": { "type": "Point", "coordinates": [ -4.573622, 5.667321000000129 ] } },
{ "type": "Feature", "properties": { "adm_p_lvl": 2, "name": "Sinematiali", "name_1": null, "name_2": null, "name_3": null, "loc_pcode": null, "x_coord": -5.388535, "y_coord": 9.585015, "adm3_name": "Sinématiali", "adm3_name1": null, "adm3_name2": null, "adm3_name3": null, "adm3_pcode": "CI010202", "adm2_name": "Sinématiali", "adm2_name1": null, "adm2_name2": null, "adm2_name3": null, "adm2_pcode": "CI2804", "adm1_name": "Poro", "adm1_name1": null, "adm1_name2": null, "adm1_name3": null, "adm1_pcode": "CI28", "adm0_name": "Côte d'Ivoire", "adm0_name1": null, "adm0_name2": null, "adm0_name3": null, "adm0_pcode": "CI", "valid_on": "2016-04-19", "valid_to": null, "cod_version": "V_01", "name_lng": null, "name_lng1": null, "name_lng2": null, "name_lng3": null }, "geometry": { "type": "Point", "coordinates": [ -5.38853499999982, 9.585015 ] } },
{ "type": "Feature", "properties": { "adm_p_lvl": 2, "name": "Sinfra", "name_1": null, "name_2": null, "name_3": null, "loc_pcode": null, "x_coord": -5.912967, "y_coord": 6.618507, "adm3_name": "Sinfra", "adm3_name1": null, "adm3_name2": null, "adm3_name3": null, "adm3_pcode": "CI080203", "adm2_name": "Sinfra", "adm2_name1": null, "adm2_name2": null, "adm2_name3": null, "adm2_pcode": "CI2302", "adm1_name": "Marahoue", "adm1_name1": null, "adm1_name2": null, "adm1_name3": null, "adm1_pcode": "CI23", "adm0_name": "Côte d'Ivoire", "adm0_name1": null, "adm0_name2": null, "adm0_name3": null, "adm0_pcode": "CI", "valid_on": "2016-04-19", "valid_to": null, "cod_version": "V_01", "name_lng": null, "name_lng1": null, "name_lng2": null, "name_lng3": null }, "geometry": { "type": "Point", "coordinates": [ -5.912967, 6.618507000000136 ] } },
{ "type": "Feature", "properties": { "adm_p_lvl": 2, "name": "Sipilou", "name_1": null, "name_2": null, "name_3": null, "loc_pcode": null, "x_coord": -8.10304, "y_coord": 7.865492, "adm3_name": "Sipilou", "adm3_name1": null, "adm3_name2": null, "adm3_name3": null, "adm3_pcode": "CI060105", "adm2_name": "Sipilou", "adm2_name1": null, "adm2_name2": null, "adm2_name3": null, "adm2_pcode": "CI3204", "adm1_name": "Tonkpi", "adm1_name1": null, "adm1_name2": null, "adm1_name3": null, "adm1_pcode": "CI32", "adm0_name": "Côte d'Ivoire", "adm0_name1": null, "adm0_name2": null, "adm0_name3": null, "adm0_pcode": "CI", "valid_on": "2016-04-19", "valid_to": null, "cod_version": "V_01", "name_lng": null, "name_lng1": null, "name_lng2": null, "name_lng3": null }, "geometry": { "type": "Point", "coordinates": [ -8.10304, 7.865492000000188 ] } },
{ "type": "Feature", "properties": { "adm_p_lvl": 1, "name": "Soubre", "name_1": null, "name_2": null, "name_3": null, "loc_pcode": null, "x_coord": -6.59258, "y_coord": 5.784983, "adm3_name": "Soubre", "adm3_name1": null, "adm3_name2": null, "adm3_name3": null, "adm3_pcode": "CI120103", "adm2_name": "Soubré", "adm2_name1": null, "adm2_name2": null, "adm2_name3": null, "adm2_pcode": "CI2604", "adm1_name": "Nawa", "adm1_name1": null, "adm1_name2": null, "adm1_name3": null, "adm1_pcode": "CI26", "adm0_name": "Côte d'Ivoire", "adm0_name1": null, "adm0_name2": null, "adm0_name3": null, "adm0_pcode": "CI", "valid_on": "2016-04-19", "valid_to": null, "cod_version": "V_01", "name_lng": null, "name_lng1": null, "name_lng2": null, "name_lng3": null }, "geometry": { "type": "Point", "coordinates": [ -6.592579999999884, 5.784983 ] } },
{ "type": "Feature", "properties": { "adm_p_lvl": 2, "name": "Taabo", "name_1": null, "name_2": null, "name_3": null, "loc_pcode": null, "x_coord": -5.071136, "y_coord": 6.275994, "adm3_name": "Taabo", "adm3_name1": null, "adm3_name2": null, "adm3_name3": null, "adm3_pcode": "CI130204", "adm2_name": "Taabo", "adm2_name1": null, "adm2_name2": null, "adm2_name3": null, "adm2_pcode": "CI0303", "adm1_name": "Agneby-Tiassa", "adm1_name1": null, "adm1_name2": null, "adm1_name3": null, "adm1_pcode": "CI03", "adm0_name": "Côte d'Ivoire", "adm0_name1": null, "adm0_name2": null, "adm0_name3": null, "adm0_pcode": "CI", "valid_on": "2016-04-19", "valid_to": null, "cod_version": "V_01", "name_lng": null, "name_lng1": null, "name_lng2": null, "name_lng3": null }, "geometry": { "type": "Point", "coordinates": [ -5.071136, 6.275994 ] } },
{ "type": "Feature", "properties": { "adm_p_lvl": 2, "name": "Tabou", "name_1": null, "name_2": null, "name_3": null, "loc_pcode": null, "x_coord": -7.357668, "y_coord": 4.421011, "adm3_name": "Tabou", "adm3_name1": null, "adm3_name2": null, "adm3_name3": null, "adm3_pcode": "CI120201", "adm2_name": "Tabou", "adm2_name1": null, "adm2_name2": null, "adm2_name3": null, "adm2_pcode": "CI2902", "adm1_name": "San Pedro", "adm1_name1": null, "adm1_name2": null, "adm1_name3": null, "adm1_pcode": "CI29", "adm0_name": "Côte d'Ivoire", "adm0_name1": null, "adm0_name2": null, "adm0_name3": null, "adm0_pcode": "CI", "valid_on": "2016-04-19", "valid_to": null, "cod_version": "V_01", "name_lng": null, "name_lng1": null, "name_lng2": null, "name_lng3": null }, "geometry": { "type": "Point", "coordinates": [ -7.357667999999876, 4.421011 ] } },
{ "type": "Feature", "properties": { "adm_p_lvl": 2, "name": "Tai", "name_1": null, "name_2": null, "name_3": null, "loc_pcode": null, "x_coord": -7.454024, "y_coord": 5.87621, "adm3_name": "Taï", "adm3_name1": null, "adm3_name2": null, "adm3_name3": null, "adm3_pcode": "CI060304", "adm2_name": "Taï", "adm2_name1": null, "adm2_name2": null, "adm2_name3": null, "adm2_pcode": "CI0903", "adm1_name": "Cavally", "adm1_name1": null, "adm1_name2": null, "adm1_name3": null, "adm1_pcode": "CI09", "adm0_name": "Côte d'Ivoire", "adm0_name1": null, "adm0_name2": null, "adm0_name3": null, "adm0_pcode": "CI", "valid_on": "2016-04-19", "valid_to": null, "cod_version": "V_01", "name_lng": null, "name_lng1": null, "name_lng2": null, "name_lng3": null }, "geometry": { "type": "Point", "coordinates": [ -7.454024, 5.87621 ] } },
{ "type": "Feature", "properties": { "adm_p_lvl": 2, "name": "Tanda", "name_1": null, "name_2": null, "name_3": null, "loc_pcode": null, "x_coord": -3.165947, "y_coord": 7.802094, "adm3_name": "Tanda", "adm3_name1": null, "adm3_name2": null, "adm3_name3": null, "adm3_pcode": "CI030203", "adm2_name": "Tanda", "adm2_name1": null, "adm2_name2": null, "adm2_name3": null, "adm2_pcode": "CI1404", "adm1_name": "Gontougo", "adm1_name1": null, "adm1_name2": null, "adm1_name3": null, "adm1_pcode": "CI14", "adm0_name": "Côte d'Ivoire", "adm0_name1": null, "adm0_name2": null, "adm0_name3": null, "adm0_pcode": "CI", "valid_on": "2016-04-19", "valid_to": null, "cod_version": "V_01", "name_lng": null, "name_lng1": null, "name_lng2": null, "name_lng3": null }, "geometry": { "type": "Point", "coordinates": [ -3.165947, 7.802094000000181 ] } },
{ "type": "Feature", "properties": { "adm_p_lvl": 2, "name": "Tehini", "name_1": null, "name_2": null, "name_3": null, "loc_pcode": null, "x_coord": -3.659187, "y_coord": 9.60432, "adm3_name": "Téhini", "adm3_name1": null, "adm3_name2": null, "adm3_name3": null, "adm3_pcode": "CI030101", "adm2_name": "Téhini", "adm2_name1": null, "adm2_name2": null, "adm2_name3": null, "adm2_pcode": "CI0804", "adm1_name": "Bounkani", "adm1_name1": null, "adm1_name2": null, "adm1_name3": null, "adm1_pcode": "CI08", "adm0_name": "Côte d'Ivoire", "adm0_name1": null, "adm0_name2": null, "adm0_name3": null, "adm0_pcode": "CI", "valid_on": "2016-04-19", "valid_to": null, "cod_version": "V_01", "name_lng": null, "name_lng1": null, "name_lng2": null, "name_lng3": null }, "geometry": { "type": "Point", "coordinates": [ -3.659187, 9.60432 ] } },
{ "type": "Feature", "properties": { "adm_p_lvl": 2, "name": "Tengrela", "name_1": null, "name_2": null, "name_3": null, "loc_pcode": null, "x_coord": -6.409019, "y_coord": 10.476983, "adm3_name": "Tengrela", "adm3_name1": null, "adm3_name2": null, "adm3_name3": null, "adm3_pcode": "CI010101", "adm2_name": "Tengrela", "adm2_name1": null, "adm2_name2": null, "adm2_name3": null, "adm2_pcode": "CI0503", "adm1_name": "Bagoue", "adm1_name1": null, "adm1_name2": null, "adm1_name3": null, "adm1_pcode": "CI05", "adm0_name": "Côte d'Ivoire", "adm0_name1": null, "adm0_name2": null, "adm0_name3": null, "adm0_pcode": "CI", "valid_on": "2016-04-19", "valid_to": null, "cod_version": "V_01", "name_lng": null, "name_lng1": null, "name_lng2": null, "name_lng3": null }, "geometry": { "type": "Point", "coordinates": [ -6.40901899999983, 10.476983 ] } },
{ "type": "Feature", "properties": { "adm_p_lvl": 2, "name": "Tiapoum", "name_1": null, "name_2": null, "name_3": null, "loc_pcode": null, "x_coord": -3.022345, "y_coord": 5.138636, "adm3_name": "Tiapoum", "adm3_name1": null, "adm3_name2": null, "adm3_name3": null, "adm3_pcode": "CI090204", "adm2_name": "Tiapoum", "adm2_name1": null, "adm2_name2": null, "adm2_name3": null, "adm2_pcode": "CI3004", "adm1_name": "Sud-Comoe", "adm1_name1": null, "adm1_name2": null, "adm1_name3": null, "adm1_pcode": "CI30", "adm0_name": "Côte d'Ivoire", "adm0_name1": null, "adm0_name2": null, "adm0_name3": null, "adm0_pcode": "CI", "valid_on": "2016-04-19", "valid_to": null, "cod_version": "V_01", "name_lng": null, "name_lng1": null, "name_lng2": null, "name_lng3": null }, "geometry": { "type": "Point", "coordinates": [ -3.022345, 5.138636 ] } },
{ "type": "Feature", "properties": { "adm_p_lvl": 2, "name": "Tiassale", "name_1": null, "name_2": null, "name_3": null, "loc_pcode": null, "x_coord": -4.824294, "y_coord": 5.89877, "adm3_name": "Tiassalé", "adm3_name1": null, "adm3_name2": null, "adm3_name3": null, "adm3_pcode": "CI130201", "adm2_name": "Tiassalé", "adm2_name1": null, "adm2_name2": null, "adm2_name3": null, "adm2_pcode": "CI0304", "adm1_name": "Agneby-Tiassa", "adm1_name1": null, "adm1_name2": null, "adm1_name3": null, "adm1_pcode": "CI03", "adm0_name": "Côte d'Ivoire", "adm0_name1": null, "adm0_name2": null, "adm0_name3": null, "adm0_pcode": "CI", "valid_on": "2016-04-19", "valid_to": null, "cod_version": "V_01", "name_lng": null, "name_lng1": null, "name_lng2": null, "name_lng3": null }, "geometry": { "type": "Point", "coordinates": [ -4.824293999999895, 5.898770000000127 ] } },
{ "type": "Feature", "properties": { "adm_p_lvl": 2, "name": "Tiebissou", "name_1": null, "name_2": null, "name_3": null, "loc_pcode": null, "x_coord": -5.224248, "y_coord": 7.155036, "adm3_name": "Tiébissou", "adm3_name1": null, "adm3_name2": null, "adm3_name3": null, "adm3_pcode": "CI070202", "adm2_name": "Tiébissou", "adm2_name1": null, "adm2_name2": null, "adm2_name3": null, "adm2_pcode": "CI0603", "adm1_name": "Belier", "adm1_name1": null, "adm1_name2": null, "adm1_name3": null, "adm1_pcode": "CI06", "adm0_name": "Côte d'Ivoire", "adm0_name1": null, "adm0_name2": null, "adm0_name3": null, "adm0_pcode": "CI", "valid_on": "2016-04-19", "valid_to": null, "cod_version": "V_01", "name_lng": null, "name_lng1": null, "name_lng2": null, "name_lng3": null }, "geometry": { "type": "Point", "coordinates": [ -5.224248, 7.155036000000166 ] } },
{ "type": "Feature", "properties": { "adm_p_lvl": 1, "name": "Touba", "name_1": null, "name_2": null, "name_3": null, "loc_pcode": null, "x_coord": -7.68122, "y_coord": 8.286124, "adm3_name": "Touba", "adm3_name1": null, "adm3_name2": null, "adm3_name3": null, "adm3_pcode": "CI050202", "adm2_name": "Touba", "adm2_name1": null, "adm2_name2": null, "adm2_name3": null, "adm2_pcode": "CI0403", "adm1_name": "Bafing", "adm1_name1": null, "adm1_name2": null, "adm1_name3": null, "adm1_pcode": "CI04", "adm0_name": "Côte d'Ivoire", "adm0_name1": null, "adm0_name2": null, "adm0_name3": null, "adm0_pcode": "CI", "valid_on": "2016-04-19", "valid_to": null, "cod_version": "V_01", "name_lng": null, "name_lng1": null, "name_lng2": null, "name_lng3": null }, "geometry": { "type": "Point", "coordinates": [ -7.68122, 8.286124000000143 ] } },
{ "type": "Feature", "properties": { "adm_p_lvl": 2, "name": "Toulepleu", "name_1": null, "name_2": null, "name_3": null, "loc_pcode": null, "x_coord": -8.41213, "y_coord": 6.579967, "adm3_name": "Toulepleu", "adm3_name1": null, "adm3_name2": null, "adm3_name3": null, "adm3_pcode": "CI060303", "adm2_name": "Toulepleu", "adm2_name1": null, "adm2_name2": null, "adm2_name3": null, "adm2_pcode": "CI0904", "adm1_name": "Cavally", "adm1_name1": null, "adm1_name2": null, "adm1_name3": null, "adm1_pcode": "CI09", "adm0_name": "Côte d'Ivoire", "adm0_name1": null, "adm0_name2": null, "adm0_name3": null, "adm0_pcode": "CI", "valid_on": "2016-04-19", "valid_to": null, "cod_version": "V_01", "name_lng": null, "name_lng1": null, "name_lng2": null, "name_lng3": null }, "geometry": { "type": "Point", "coordinates": [ -8.412129999999877, 6.579967 ] } },
{ "type": "Feature", "properties": { "adm_p_lvl": 2, "name": "Toumodi", "name_1": null, "name_2": null, "name_3": null, "loc_pcode": null, "x_coord": -5.017515, "y_coord": 6.559133, "adm3_name": "Toumodi", "adm3_name1": null, "adm3_name2": null, "adm3_name3": null, "adm3_pcode": "CI070203", "adm2_name": "Toumodi", "adm2_name1": null, "adm2_name2": null, "adm2_name3": null, "adm2_pcode": "CI0604", "adm1_name": "Belier", "adm1_name1": null, "adm1_name2": null, "adm1_name3": null, "adm1_pcode": "CI06", "adm0_name": "Côte d'Ivoire", "adm0_name1": null, "adm0_name2": null, "adm0_name3": null, "adm0_pcode": "CI", "valid_on": "2016-04-19", "valid_to": null, "cod_version": "V_01", "name_lng": null, "name_lng1": null, "name_lng2": null, "name_lng3": null }, "geometry": { "type": "Point", "coordinates": [ -5.017515, 6.559133 ] } },
{ "type": "Feature", "properties": { "adm_p_lvl": 2, "name": "Transua", "name_1": null, "name_2": null, "name_3": null, "loc_pcode": null, "x_coord": -3.013633, "y_coord": 7.548602, "adm3_name": "Transua", "adm3_name1": null, "adm3_name2": null, "adm3_name3": null, "adm3_pcode": "CI030204", "adm2_name": "Transua", "adm2_name1": null, "adm2_name2": null, "adm2_name3": null, "adm2_pcode": "CI1405", "adm1_name": "Gontougo", "adm1_name1": null, "adm1_name2": null, "adm1_name3": null, "adm1_pcode": "CI14", "adm0_name": "Côte d'Ivoire", "adm0_name1": null, "adm0_name2": null, "adm0_name3": null, "adm0_pcode": "CI", "valid_on": "2016-04-19", "valid_to": null, "cod_version": "V_01", "name_lng": null, "name_lng1": null, "name_lng2": null, "name_lng3": null }, "geometry": { "type": "Point", "coordinates": [ -3.013633, 7.54860200000013 ] } },
{ "type": "Feature", "properties": { "adm_p_lvl": 2, "name": "Vavoua", "name_1": null, "name_2": null, "name_3": null, "loc_pcode": null, "x_coord": -6.479816, "y_coord": 7.382114, "adm3_name": "Vavoua", "adm3_name1": null, "adm3_name2": null, "adm3_name3": null, "adm3_pcode": "CI080101", "adm2_name": "Vavoua", "adm2_name1": null, "adm2_name2": null, "adm2_name3": null, "adm2_pcode": "CI1803", "adm1_name": "Haut-Sassandra", "adm1_name1": null, "adm1_name2": null, "adm1_name3": null, "adm1_pcode": "CI18", "adm0_name": "Côte d'Ivoire", "adm0_name1": null, "adm0_name2": null, "adm0_name3": null, "adm0_pcode": "CI", "valid_on": "2016-04-19", "valid_to": null, "cod_version": "V_01", "name_lng": null, "name_lng1": null, "name_lng2": null, "name_lng3": null }, "geometry": { "type": "Point", "coordinates": [ -6.479816, 7.382114000000115 ] } },
{ "type": "Feature", "properties": { "adm_p_lvl": 2, "name": "Yakasse-Attobrou", "name_1": null, "name_2": null, "name_3": null, "loc_pcode": null, "x_coord": -3.649318, "y_coord": 6.186057, "adm3_name": "Yakasse-Attobrou", "adm3_name1": null, "adm3_name2": null, "adm3_name3": null, "adm3_pcode": "CI130103", "adm2_name": "Yakassé-Attobrou", "adm2_name1": null, "adm2_name2": null, "adm2_name3": null, "adm2_pcode": "CI2404", "adm1_name": "Me", "adm1_name1": null, "adm1_name2": null, "adm1_name3": null, "adm1_pcode": "CI24", "adm0_name": "Côte d'Ivoire", "adm0_name1": null, "adm0_name2": null, "adm0_name3": null, "adm0_pcode": "CI", "valid_on": "2016-04-19", "valid_to": null, "cod_version": "V_01", "name_lng": null, "name_lng1": null, "name_lng2": null, "name_lng3": null }, "geometry": { "type": "Point", "coordinates": [ -3.649318, 6.186057 ] } },
{ "type": "Feature", "properties": { "adm_p_lvl": 0, "name": "Yamoussoukro", "name_1": null, "name_2": null, "name_3": null, "loc_pcode": null, "x_coord": -5.268767, "y_coord": 6.825577, "adm3_name": "Yamoussoukro", "adm3_name1": null, "adm3_name2": null, "adm3_name3": null, "adm3_pcode": "CI100102", "adm2_name": "Yamoussoukro", "adm2_name1": null, "adm2_name2": null, "adm2_name3": null, "adm2_pcode": "CI0202", "adm1_name": "District Autonome De Yamoussoukro", "adm1_name1": null, "adm1_name2": null, "adm1_name3": null, "adm1_pcode": "CI02", "adm0_name": "Côte d'Ivoire", "adm0_name1": null, "adm0_name2": null, "adm0_name3": null, "adm0_pcode": "CI", "valid_on": "2016-04-19", "valid_to": null, "cod_version": "V_01", "name_lng": null, "name_lng1": null, "name_lng2": null, "name_lng3": null }, "geometry": { "type": "Point", "coordinates": [ -5.268767, 6.825577 ] } },
{ "type": "Feature", "properties": { "adm_p_lvl": 2, "name": "Zouan-Hounien", "name_1": null, "name_2": null, "name_3": null, "loc_pcode": null, "x_coord": -8.207166, "y_coord": 6.919242, "adm3_name": "Zouan Hounien", "adm3_name1": null, "adm3_name2": null, "adm3_name3": null, "adm3_pcode": "CI060104", "adm2_name": "Zouan-Hounien", "adm2_name1": null, "adm2_name2": null, "adm2_name3": null, "adm2_pcode": "CI3205", "adm1_name": "Tonkpi", "adm1_name1": null, "adm1_name2": null, "adm1_name3": null, "adm1_pcode": "CI32", "adm0_name": "Côte d'Ivoire", "adm0_name1": null, "adm0_name2": null, "adm0_name3": null, "adm0_pcode": "CI", "valid_on": "2016-04-19", "valid_to": null, "cod_version": "V_01", "name_lng": null, "name_lng1": null, "name_lng2": null, "name_lng3": null }, "geometry": { "type": "Point", "coordinates": [ -8.207166, 6.919242 ] } },
{ "type": "Feature", "properties": { "adm_p_lvl": 2, "name": "Zoukougbeu", "name_1": null, "name_2": null, "name_3": null, "loc_pcode": null, "x_coord": -6.864491, "y_coord": 6.762446, "adm3_name": "Zoukougbeu", "adm3_name1": null, "adm3_name2": null, "adm3_name3": null, "adm3_pcode": "CI080103", "adm2_name": "Zoukougbeu", "adm2_name1": null, "adm2_name2": null, "adm2_name3": null, "adm2_pcode": "CI1804", "adm1_name": "Haut-Sassandra", "adm1_name1": null, "adm1_name2": null, "adm1_name3": null, "adm1_pcode": "CI18", "adm0_name": "Côte d'Ivoire", "adm0_name1": null, "adm0_name2": null, "adm0_name3": null, "adm0_pcode": "CI", "valid_on": "2016-04-19", "valid_to": null, "cod_version": "V_01", "name_lng": null, "name_lng1": null, "name_lng2": null, "name_lng3": null }, "geometry": { "type": "Point", "coordinates": [ -6.864490999999873, 6.762446000000125 ] } },
{ "type": "Feature", "properties": { "adm_p_lvl": 2, "name": "Zuenoula", "name_1": null, "name_2": null, "name_3": null, "loc_pcode": null, "x_coord": -6.049932, "y_coord": 7.428255, "adm3_name": "Zuénoula", "adm3_name1": null, "adm3_name2": null, "adm3_name3": null, "adm3_pcode": "CI080201", "adm2_name": "Zuénoula", "adm2_name1": null, "adm2_name2": null, "adm2_name3": null, "adm2_pcode": "CI2303", "adm1_name": "Marahoue", "adm1_name1": null, "adm1_name2": null, "adm1_name3": null, "adm1_pcode": "CI23", "adm0_name": "Côte d'Ivoire", "adm0_name1": null, "adm0_name2": null, "adm0_name3": null, "adm0_pcode": "CI", "valid_on": "2016-04-19", "valid_to": null, "cod_version": "V_01", "name_lng": null, "name_lng1": null, "name_lng2": null, "name_lng3": null }, "geometry": { "type": "Point", "coordinates": [ -6.049931999999899, 7.428255 ] } }
]
}
